{
  "version": 0.6,
  "generator": "Overpass API 0.7.55.5 2ca3f387",
  "osm3s": {
    "timestamp_osm_base": "2019-02-15T09:59:02Z",
    "timestamp_areas_base": "2019-02-15T09:41:02Z",
    "copyright": "The data included in this document is from www.openstreetmap.org. The data is made available under ODbL."
  },
  "elements": [
    {
      "type": "node",
      "id": 578460076,
      "lat": 38.6922828,
      "lon": -9.2171623,
      "tags": {
        "name": "Museu dos Combatentes do Ultramar",
        "tourism": "museum"
      }
    },
    {
      "type": "node",
      "id": 583946186,
      "lat": 38.7095992,
      "lon": -9.2068678,
      "tags": {
        "man_made": "windmill",
        "name": "Moinhos de Santana",
        "tourism": "museum"
      }
    },
    {
      "type": "node",
      "id": 1204384734,
      "lat": 38.6952695,
      "lon": -9.2090571,
      "tags": {
        "addr:city": "Lisboa",
        "addr:place": "Centro Cultural de Belém",
        "addr:postcode": "1449-003",
        "addr:street": "Praça do Império",
        "contact:email": "museuberardo@museuberardo.pt",
        "contact:fax": "+351 213 612 570",
        "contact:phone": "+351 213 612 878",
        "contact:website": "www.museuberardo.pt",
        "internet_access": "wlan",
        "museum": "art",
        "name": "Museu Coleção Berardo",
        "name:pl": "Muzeum sztuki",
        "opening_hours": "Mo-Su 10:00-19:00",
        "start_date": "2007-06-25",
        "tourism": "museum",
        "website": "http://www.museuberardo.pt",
        "wikidata": "Q2191491"
      }
    },
    {
      "type": "node",
      "id": 1301526823,
      "lat": 38.7751509,
      "lon": -9.1648109,
      "tags": {
        "addr:city": "Lisboa",
        "addr:place": "Lumiar",
        "addr:postcode": "1600-483",
        "addr:street": "Largo Júlio de Castilho",
        "contact:email": "mntraje@mntraje.dgpc.pt",
        "contact:phone": "+351 217 567 620;+351 217 543 920",
        "contact:website": "http://museudotraje.pt",
        "name": "Museu Nacional do Traje e da Moda",
        "name:de": "Trachtenmuseum",
        "opening_hours": "Tu 14:00-18:00; We-Su 10:00-18:00",
        "tourism": "museum"
      }
    },
    {
      "type": "node",
      "id": 1301526826,
      "lat": 38.7746993,
      "lon": -9.1671669,
      "tags": {
        "addr:city": "Lisboa",
        "addr:housenumber": "10",
        "addr:place": "Lumiar",
        "addr:street": "Estrada do Lumiar",
        "contact:email": "geral@mnteatro.dgpc.pt",
        "contact:phone": "+351 217 567 410;+351 217 567 419",
        "contact:website": "http://museudoteatroedanca.pt/",
        "name": "Museu Nacional do Teatro e da Dança",
        "name:de": "Theatermuseum",
        "tourism": "museum"
      }
    },
    {
      "type": "node",
      "id": 1623055925,
      "lat": 38.7131073,
      "lon": -9.1497546,
      "tags": {
        "addr:city": "Lisboa",
        "addr:flats": "2",
        "addr:housenumber": "19",
        "addr:postcode": "1249-280",
        "addr:street": "Rua da Academia das Ciências",
        "alt_name": "Museu Geológico e Mineiro",
        "contact:email": "museugeol@lneg.pt",
        "contact:phone": "+351 213 463 915",
        "contact:website": "http://www.lneg.pt/museugeologico/",
        "name": "Museu Geológico",
        "opening_hours": "Mo-Sa 10:00-18:00; PH off",
        "operator": "Laboratório Nacional de Energia e Geologia",
        "start_date": "1859",
        "tourism": "museum",
        "wikidata": "Q10333493",
        "wikipedia": "pt:Museu Geológico de Lisboa"
      }
    },
    {
      "type": "node",
      "id": 1808611037,
      "lat": 38.7495821,
      "lon": -9.1802357,
      "tags": {
        "name": "Museu da Música",
        "name:de": "Musikmuseum",
        "tourism": "museum",
        "wikidata": "Q6940616"
      }
    },
    {
      "type": "node",
      "id": 2491785179,
      "lat": 38.6973415,
      "lon": -9.2072612,
      "tags": {
        "addr:city": "Lisboa",
        "addr:housename": "Mosteiro dos Jerónimos",
        "addr:postcode": "1400-206",
        "addr:street": "Praça do Império",
        "contact:email": "geral@mnarqueologia.dgpc.pt",
        "contact:fax": "+351 213 620 016",
        "contact:phone": "+351 213 620 000;+351 213 620 025",
        "contact:website": "www.museuarqueologia.pt",
        "description": "Instalado em 1893, possui um acervo vastíssimo e diversificado dividido em núcleos: arqueologia, etnografia, numismática, epigrafia pré-latina e latina, escultura, documentos escritos, mosaicos e antropologia física. Na sala do tesouro encontra-se u",
        "name": "Museu Nacional de Arqueologia",
        "name:de": "Nationalmuseum für Archäologie",
        "name:en": "National Archaeology Museum",
        "name:es": "Museo Nacional de Arqueología",
        "name:it": "Museo archeologico nazionale",
        "opening_hours": "Tu-Su 10:00-18:00; Jan 01,May 01,Jun 13,Dec 25 off;easter off",
        "source": "dadosabertos.cm-lisboa.pt",
        "source:name": "Museu",
        "source:pkey": "d502d173-87bd-4a4a-8009-76fc941feb63",
        "start_date": "1893",
        "tourism": "museum",
        "website": "http://www.mnarqueologia-ipmuseus.pt",
        "wikidata": "Q1954384",
        "wikipedia": "pt:Museu Nacional de Arqueologia"
      }
    },
    {
      "type": "node",
      "id": 2503411074,
      "lat": 38.7077361,
      "lon": -9.1353614,
      "tags": {
        "addr:city": "Lisboa",
        "addr:housenumber": "78 - 81",
        "addr:postcode": "1100-148",
        "addr:street": "Praça do Comércio",
        "name": "Lisboa Story Center",
        "phone": "+351 21 194 1027",
        "toilets:wheelchair": "yes",
        "tourism": "museum",
        "website": "https://lisboastorycentre.pt/en/content/reduced-mobility",
        "wheelchair": "limited",
        "wheelchair:description": "Schwelle am Eingang, kleine Rampe innen steiler als 6 %"
      }
    },
    {
      "type": "node",
      "id": 3128158245,
      "lat": 38.7080039,
      "lon": -9.1557935,
      "tags": {
        "addr:city": "Lisboa",
        "addr:housename": "Convento das Bernardas",
        "addr:housenumber": "146",
        "addr:postcode": "1200-660",
        "addr:street": "Rua da Esperança",
        "contact:email": "museudamarioneta@egeac.pt",
        "contact:fax": "+351 213 942 819",
        "contact:phone": "+351 213 942 810;+351 916 294 128;+351 916 294 135",
        "contact:website": "www.museudamarioneta.pt",
        "email": "museumdamarioneta@egeac.pt",
        "name": "Museu da Marioneta",
        "name:ru": "Музей марионеток",
        "opening_hours": "Tu-Su 10:00-18:00",
        "phone": "+351 213 942 810",
        "start_date": "1987",
        "tourism": "museum",
        "website": "http://museumdamarioneta.pt",
        "wikidata": "Q10333706",
        "wikipedia": "pt:Museu da Marioneta"
      }
    },
    {
      "type": "node",
      "id": 3575234310,
      "lat": 38.7089468,
      "lon": -9.1426551,
      "tags": {
        "tourism": "museum"
      }
    },
    {
      "type": "node",
      "id": 3889292857,
      "lat": 38.7626082,
      "lon": -9.0955723,
      "tags": {
        "addr:city": "Lisboa",
        "addr:place": "Parque das Nações",
        "addr:postcode": "1990-223",
        "addr:street": "Alameda dos Oceanos",
        "addr:unit": "Lt 2.10.01",
        "contact:email": "info@pavconhecimento.pt",
        "contact:fax": "+351 218 917 171",
        "contact:phone": "+351 218 917 100",
        "contact:website": "www.pavconhecimento.pt",
        "name": "Pavilhão do Conhecimento - Ciência Viva",
        "opening_hours": "Mo-Fr 10:00-18:00; PH,Sa,Su 11:00-19:00",
        "start_date": "1999-07-25",
        "toilets:wheelchair": "yes",
        "tourism": "museum",
        "wheelchair": "yes",
        "wheelchair:description": "Very good"
      }
    },
    {
      "type": "node",
      "id": 4340743360,
      "lat": 38.7424034,
      "lon": -9.1452303,
      "tags": {
        "addr:city": "Lisboa",
        "addr:postcode": "1000-082",
        "addr:street": "Campo Pequeno",
        "name": "Museu do Campo Pequeno",
        "name:zh": "坎普佩克諾鬥牛場",
        "opening_hours": "10:00-19:00",
        "operator": "Museu do Campo Pequeno",
        "tourism": "museum",
        "website": "http://campopequeno.com/"
      }
    },
    {
      "type": "node",
      "id": 4361897289,
      "lat": 38.7099747,
      "lon": -9.1370415,
      "tags": {
        "addr:city": "Lisboa",
        "addr:housename": "BCP",
        "addr:housenumber": "21",
        "addr:postcode": "1100-061",
        "addr:street": "Rua dos Correeiros",
        "contact:email": "fundacao@millenniumbcp.pt",
        "contact:phone": "+351 211 131 004",
        "contact:website": "http://ind.millenniumbcp.pt/pt/Institucional/fundacao/Pages/fundacao_NARC.aspx",
        "description": "Um pequeno museu que revela a riqueza arqueológica que existe sob a Baixa Pombalina,pondo à vista vestígios de diversas épocas,mas principalmente romanos.No local foram encontrados vestígios das primeiras habitações da cidade ibero-púnica...",
        "historic": "archaeological_site",
        "historic:civilization": "ancient_roman",
        "historic:period": "protohistory;late_antiquity",
        "name": "Núcleo Arqueológico da Rua dos Correeiros (BCP)",
        "opening_hours": "Mo-Sa 10:00-12:00,14:00-17:00; PH off",
        "phone": "+351 211 131 004",
        "site_type": "settlement",
        "source": "dadosabertos.cm-lisboa.pt",
        "source:name": "URL",
        "source:pkey": "8d314e94-d112-40e7-88ba-66a4958d17ff",
        "tourism": "museum",
        "website": "http://www.cm-lisboa.pt/equipamentos/equipamento/info/nucleo-arqueologico-da-rua-dos-correeiros-bcp"
      }
    },
    {
      "type": "node",
      "id": 4419041593,
      "lat": 38.710173,
      "lon": -9.132551,
      "tags": {
        "addr:city": "Lisboa",
        "addr:postcode": "1100-059",
        "addr:street": "Rua de Augusto Rosa",
        "contact:email": "info@museudoaljube.pt",
        "contact:phone": "+351 215 818 535",
        "contact:website": "http://www.museudoaljube.pt",
        "name": "Museu do Aljube - Resistência e Liberdade",
        "name:zh": "城堡",
        "opening_hours": "Tu-Su 10:00-19:00; Jan 01,May 01,Dec 25 off",
        "start_date": "2015-04-25",
        "tourism": "museum",
        "wikidata": "Q17389986"
      }
    },
    {
      "type": "node",
      "id": 4688777792,
      "lat": 38.7222374,
      "lon": -9.1557697,
      "tags": {
        "addr:city": "Lisboa",
        "addr:housenumber": "56",
        "addr:postcode": "1250-020",
        "addr:street": "Praça das Amoreiras",
        "contact:email": "fasvs@fasvs.pt",
        "contact:phone": "+351 21 388 00 44",
        "contact:website": "www.fasvs.pt",
        "name": "Museu Arpad Szenes - Vieira da Silva",
        "opening_hours": "Tu-Su 10:00-18:00; PH off",
        "start_date": "1994-11",
        "tourism": "museum",
        "website": "http://fasvs.pt"
      }
    },
    {
      "type": "node",
      "id": 4693994869,
      "lat": 38.7158484,
      "lon": -9.1582997,
      "tags": {
        "addr:city": "Lisboa",
        "addr:housenumber": "69",
        "addr:postcode": "1250-017",
        "addr:street": "Avenida Pedro Álvares Cabral",
        "contact:email": "museu@escolasjoaodeus.pt",
        "contact:fax": "+351 213 964 182",
        "contact:phone": "+351 213 960 854",
        "contact:website": "www.joaodeus.com/museu/museu.asp",
        "name": "Museu João de Deus",
        "opening_hours": "Mo-Fr 09:30-17:00; PH off; Jun 13,Dec 24-26 off",
        "tourism": "museum",
        "wikidata": "Q10333529"
      }
    },
    {
      "type": "node",
      "id": 4711868424,
      "lat": 38.7588988,
      "lon": -9.154147,
      "tags": {
        "addr:housenumber": "382",
        "addr:street": "Campo Grande",
        "contact:email": "museu.bordalopinheiro@cm-lisboa.pt",
        "contact:phone": "+351 218 170 667",
        "contact:website": "http://museubordalopinheiro.cm-lisboa.pt",
        "name": "Museu Bordalo Pinheiro",
        "name:en": "Rafael Bordalo Pinheiro Museum",
        "tourism": "museum",
        "website": "http://museubordalopinheiro.cm-lisboa.pt/",
        "wikidata": "Q7282050"
      }
    },
    {
      "type": "node",
      "id": 4785254923,
      "lat": 38.7142196,
      "lon": -9.1378069,
      "tags": {
        "addr:housenumber": "7",
        "addr:street": "Praça da Figueira",
        "name": "Hospital de Bonecas",
        "name:en": "Hospital de Bonecas",
        "name:pt": "Hospital de Bonecas",
        "tourism": "museum"
      }
    },
    {
      "type": "node",
      "id": 4788155560,
      "lat": 38.700849,
      "lon": -9.1824432,
      "tags": {
        "addr:city": "Lisbon",
        "addr:housenumber": "30",
        "addr:postcode": "1300-343",
        "addr:street": "Rua da Junqueira",
        "contact:email": "museu@cccm.pt",
        "contact:fax": "+351 213 617 598",
        "contact:phone": "+351 213 617 570",
        "contact:website": "www.cccm.pt",
        "name": "Museu do Centro Científico e Cultural de Macau",
        "name:en": "Scientific and Cultural Macao Museum",
        "official_name": "Centro Científico e Cultural de Macau, I.P.",
        "opening_hours": "Tu-Su 10:00-17:00",
        "tourism": "museum",
        "website": "http://www.cccm.pt/"
      }
    },
    {
      "type": "node",
      "id": 4804718021,
      "lat": 38.7085978,
      "lon": -9.1388894,
      "tags": {
        "addr:city": "Lisboa",
        "addr:housenumber": "26",
        "addr:postcode": "1100-150",
        "addr:street": "Largo de São Julião",
        "addr:unit": "R/C",
        "contact:email": "info@museudodinheiro.pt",
        "contact:phone": "+351 213 213 240",
        "contact:website": "www.museudodinheiro.pt",
        "name": "Museu do Dinheiro",
        "name:pt": "Museu do Dinheiro",
        "old_name": "Igreja de São Julião",
        "opening_hours": "We-Sa 10:00-18:00; Jan 01,May 01,Dec 24-25 off",
        "tourism": "museum",
        "wheelchair": "yes"
      }
    },
    {
      "type": "node",
      "id": 4822780021,
      "lat": 38.7131925,
      "lon": -9.1447229,
      "tags": {
        "addr:city": "Lisboa",
        "addr:housenumber": "25",
        "addr:postcode": "1200-211",
        "addr:street": "Rua do Grémio Lusitano",
        "contact:email": "museumaconicoportugues@gmail.com",
        "contact:fax": "+351 213 426 557",
        "contact:phone": "+351 213 424 506",
        "contact:website": "http://www.gremiolusitano.pt/museum",
        "name": "Museu Maçónico Português",
        "opening_hours": "Mo-Fr 14:30-17:30",
        "tourism": "museum",
        "wikidata": "Q10333537",
        "wikipedia": "pt:Museu Maçónico Português"
      }
    },
    {
      "type": "node",
      "id": 4853563821,
      "lat": 38.7166105,
      "lon": -9.1407571,
      "tags": {
        "addr:city": "Lisboa",
        "addr:housenumber": "100",
        "addr:postcode": "1150-269",
        "addr:street": "Rua das Portas de Santo Antão",
        "contact:email": "geral@socgeografialisboa.pt",
        "contact:phone": "+351 213 425 401;+351 213 425 068;+351 935 425 401",
        "contact:website": "www.socgeografialisboa.pt",
        "email": "geral@socgeogeafialisboa.pt",
        "name": "Museu da Sociedade de Geografia de Lisboa",
        "name:en": "Lisbon Geographical Society Museum",
        "phone": "+351213425401",
        "start_date": "1884",
        "tourism": "museum",
        "website": "http://www.socgeogeafialisboa.pt"
      }
    },
    {
      "type": "node",
      "id": 5009689622,
      "lat": 38.7100464,
      "lon": -9.1338928,
      "tags": {
        "addr:city": "Lisboa",
        "addr:housenumber": "22",
        "addr:postcode": "1100-499",
        "addr:street": "Largo de Santo António da Sé",
        "contact:email": "info@museudelisboa.pt",
        "contact:phone": "+351 218 860 447",
        "contact:website": "www.museudelisboa.pt/equipamentos/santo-antonio.html",
        "name": "Museu de Lisboa - Santo António",
        "old_name": "Museu Antoniano",
        "opening_hours": "Tu-Sa 10:00-13:00, 14:00-18:00",
        "start_date": "1962",
        "tourism": "museum"
      }
    },
    {
      "type": "node",
      "id": 5068486962,
      "lat": 38.7098182,
      "lon": -9.1332409,
      "tags": {
        "addr:city": "Lisboa",
        "addr:street": "Largo da Sé",
        "contact:email": "tesouro@se-patriarcal.pt",
        "contact:phone": "+351 218 866 752",
        "name": "Tesouro da Sé Patriarcal",
        "tourism": "museum"
      }
    },
    {
      "type": "node",
      "id": 5068486965,
      "lat": 38.712006,
      "lon": -9.1405862,
      "tags": {
        "addr:city": "Lisboa",
        "addr:housename": "Igreja do COnvento de Snata Maria do Carmo",
        "addr:postcode": "1200-092",
        "addr:street": "Largo do Carmo",
        "alt_name": "Ruínas e Museu Arqueológico do Carmo;Ruínas do Carmo",
        "contact:email": "secretaria@arqueologos.pt",
        "contact:phone": "+351 213 478 629;+ 351 213 460 473",
        "contact:website": "www.museuarqueologicodocarmo.pt",
        "description": "O espólio museológico da Associação dos Arqueólogos Portugueses, que deu origem ao Museu Arqueológico do Carmo (MAC), encontra-se instalado, desde 1864, nas denominadas Ruínas do Carmo, classificadas como Monumento Nacional, correspondendo à anti",
        "email": "secretaria@arqueologos.pt",
        "historic": "monument",
        "name": "Ruínas e Museu Arqueológico do Carmo",
        "name:ru": "Монастырь Кармелитов",
        "opening_hours": "Oct-May: Tu-Su 10:00-18:00; Jun-Sep: Tu-Su 10:00-19:00; Jan 01,May 01,Dec 25 off",
        "phone": "+351 213 478 629",
        "source": "dadosabertos.cm-lisboa.pt",
        "source:name": "URL",
        "source:pkey": "bbf1d019-b2d5-4749-842b-61b7a5ff83d7",
        "start_date": "1864",
        "tourism": "museum",
        "website": "www.museuarqueologicodocarmo.pt/",
        "wikidata": "Q1146790",
        "wikipedia": "de:Museu Arqueológico do Carmo"
      }
    },
    {
      "type": "node",
      "id": 5068486966,
      "lat": 38.7155622,
      "lon": -9.142174,
      "tags": {
        "addr:city": "Lisboa",
        "addr:housename": "Palácio Foz",
        "addr:housenumber": "25-45",
        "addr:postcode": "1250-187",
        "addr:street": "Praça dos Restauradores",
        "contact:email": "museu@ipdj.pt",
        "contact:phone": "+351 213 958 629",
        "contact:website": "https://www.ipdj.pt/museu.html",
        "museum": "sport",
        "name": "Museu Nacional do Desporto",
        "opening_hours": "Tu-Su 10:00-17:00; Jan 01,May 01,Dec 24-25 off",
        "start_date": "2012-07-12",
        "tourism": "museum",
        "wikidata": "Q17167656",
        "wikipedia": "pt:Museu Nacional do Desporto"
      }
    },
    {
      "type": "node",
      "id": 5068486973,
      "lat": 38.7148171,
      "lon": -9.1278805,
      "tags": {
        "addr:city": "Lisboa",
        "addr:housename": "Mosteiro de São Vicente de Fora",
        "addr:postcode": "1100 - 572",
        "addr:street": "Largo de São Vicente",
        "contact:email": "ccultural@patriarcado-lisboa.pt",
        "contact:phone": "+351 218 810 559",
        "contact:website": "http://www.patriarcado-lisboa.pt/site/index.php?cont_=47&tem=356",
        "name": "Museu de São Vicente de Fora",
        "opening_hours": "Tu-Su 10:00-18:00",
        "tourism": "museum"
      }
    },
    {
      "type": "node",
      "id": 5068486974,
      "lat": 38.7433081,
      "lon": -9.1682008,
      "tags": {
        "addr:city": "Lisboa",
        "addr:housename": "Animax",
        "addr:postcode": "1549-004",
        "addr:street": "Praça Marechal Humberto Delgado",
        "addr:unit": "R/C",
        "contact:email": "aaha@museucriancas.com.pt",
        "contact:phone": "+351 213 976 007 / 217 268 082",
        "contact:website": "http://www.museudascriancas.eu/",
        "name": "Museu das Crianças",
        "tourism": "museum"
      }
    },
    {
      "type": "node",
      "id": 5068486975,
      "lat": 38.7498838,
      "lon": -9.179796,
      "tags": {
        "addr:city": "Lisboa",
        "addr:housename": "Estação do Metropolitano Alto dos Moinhos",
        "addr:postcode": "1500-359",
        "addr:street": "Rua João de Freitas Branco",
        "contact:email": "geral@mnmusica.dgpc.pt",
        "contact:fax": "+351 217 710 999",
        "contact:phone": "+351 217 710 990;+351 217 710 998",
        "contact:website": "www.museudamusica.pt",
        "layer": "-2",
        "name": "Museu Nacional da Música",
        "note": "O museu encontra-se no interior da Estação de Metropolitano Alto dos Moinhos.",
        "tourism": "museum"
      }
    },
    {
      "type": "node",
      "id": 5068486977,
      "lat": 38.7588255,
      "lon": -9.1180059,
      "tags": {
        "addr:housename": "Edifício RTP",
        "addr:street": "Rua Conselheiro Emídio Navarro",
        "contact:email": "museu.virtual@rtp.pt",
        "contact:phone": "+351 217 947 923",
        "name": "Coleção Museológica de Rádio e de Televisão",
        "tourism": "museum"
      }
    },
    {
      "type": "node",
      "id": 5073093222,
      "lat": 38.7122726,
      "lon": -9.1407119,
      "tags": {
        "name": "Museu Guarda Nacional Republicana",
        "name:pt": "Museu Guarda Nacional Republicana",
        "opening_hours": "Mo-Sa 10:00-18:00",
        "tourism": "museum"
      }
    },
    {
      "type": "node",
      "id": 5087468921,
      "lat": 38.697374,
      "lon": -9.2012915,
      "tags": {
        "addr:city": "Lisboa",
        "addr:housename": "Palácio de Belém",
        "addr:postcode": "1349-022",
        "addr:street": "Praça Afonso de Albuquerque",
        "contact:email": "museu@presidencia.pt",
        "contact:fax": "+351 213 614 764",
        "contact:phone": "+351 213 614 660",
        "contact:website": "www.museu.presidencia.pt",
        "name": "Museu da Presidência da República",
        "opening_hours": "Tu-Fr 10:00-18:00; Sa,Su 10:00-13:00,14:00-18:00; Jan 01,May 01,Jun 13,Dec 24-25,Dec 31 off;easter off; PH 10:00-13:00,14:00-18:00",
        "tourism": "museum",
        "wheelchair": "yes",
        "wikidata": "Q17167658",
        "wikipedia": "pt:Museu da Presidência da República"
      }
    },
    {
      "type": "node",
      "id": 5087468923,
      "lat": 38.6995341,
      "lon": -9.2060548,
      "tags": {
        "addr:city": "Lisboa",
        "addr:housenumber": "7 A",
        "addr:postcode": "1400-210",
        "addr:street": "Rua dos Jerónimos",
        "contact:email": "centro.cultural@casapia.pt",
        "contact:phone": "+351 213 610 830",
        "contact:website": "www.casapia.pt/centro_cultural_casapiano.html",
        "name": "Museu do Centro Cultural Casapiano",
        "opening_hours": "Mo-Sa 09:30-18:00",
        "start_date": "2000",
        "tourism": "museum"
      }
    },
    {
      "type": "node",
      "id": 5087468970,
      "lat": 38.6943666,
      "lon": -9.2118953,
      "tags": {
        "addr:housenumber": "166",
        "addr:street": "Avenida da Índia",
        "contact:email": "centro.arqueologia@cm-lisboa.pt",
        "contact:phone": "+351 218 172 180",
        "name": "Centro de Arqueologia de Lisboa",
        "opening_hours": "Mo-Fr 09:00-12:30,14:00-17:30",
        "start_date": "2013-06-13",
        "tourism": "museum"
      }
    },
    {
      "type": "node",
      "id": 5088739416,
      "lat": 38.7182875,
      "lon": -9.1545148,
      "tags": {
        "addr:city": "Lisboa",
        "addr:housenumber": "11",
        "addr:street": "Rua Tenente Raúl Cascais",
        "description": "Encerrada desde 2004 - assunto em tribunal por questões testamentárias - polémica entre a filha do artista e a Sociedade Nac. belas Artes - info abril 2012",
        "name": "Casa-Museu Mestre João da Silva",
        "opening_hours": "24/7 off",
        "tourism": "museum",
        "wikidata": "Q9698019",
        "wikipedia": "pt:Casa-Museu Mestre João da Silva"
      }
    },
    {
      "type": "node",
      "id": 5088757633,
      "lat": 38.7166447,
      "lon": -9.1624508,
      "tags": {
        "addr:city": "Lisboa",
        "addr:housenumber": "16",
        "addr:place": "Campo de Ourique",
        "addr:postcode": "1250-088",
        "addr:street": "Rua Coelho da Rocha",
        "contact:email": "info@casafernandopessoa.pt",
        "contact:phone": "+351 213 913 270",
        "contact:website": "http://casafernandopessoa.cm-lisboa.pt",
        "name": "Casa Fernando Pessoa",
        "opening_hours": "Mo-Sa 10:00-18:00; Jan 01,May 01,Dec 25 off",
        "tourism": "museum",
        "wikidata": "Q5047821",
        "wikipedia": "pt:Casa Fernando Pessoa"
      }
    },
    {
      "type": "node",
      "id": 5089643622,
      "lat": 38.7100683,
      "lon": -9.1472474,
      "tags": {
        "addr:city": "Lisboa",
        "addr:housenumber": "1",
        "addr:postcode": "1249-069",
        "addr:street": "Rua Marechal Saldanha",
        "contact:email": "museudafarmacia@anf.pt",
        "contact:facebook": "https://www.facebook.com/museufarmacia/",
        "contact:phone": "+351 213 400 680;+351 213 400 688",
        "contact:website": "www.museudafarmacia.pt",
        "name": "Museu da Farmácia Lisboa",
        "name:de": "Apothekenmuseum",
        "opening_hours": "Mo-Fr 10:00-19:00; Sa 14:00-19:00",
        "tourism": "museum",
        "wikidata": "Q9299839",
        "wikipedia": "pt:Museu da Farmácia"
      }
    },
    {
      "type": "node",
      "id": 5089643625,
      "lat": 38.713179,
      "lon": -9.1495621,
      "tags": {
        "alt_name": "Museu da Academia das Ciências de Lisboa",
        "name": "Museu Maynense",
        "opening_hours": "Mo,We 10:00-18:00; PH off",
        "tourism": "museum"
      }
    },
    {
      "type": "node",
      "id": 5089643629,
      "lat": 38.7078251,
      "lon": -9.1503654,
      "tags": {
        "addr:city": "Lisboa",
        "addr:housenumber": "16",
        "addr:postcode": "1200-225",
        "addr:street": "Rua do Instituto Industrial",
        "building": "yes",
        "contact:email": "museu@fpc.pt",
        "contact:fax": "+351 213 935 006",
        "contact:phone": "+351 213 935 177",
        "contact:website": "www.fpc.pt",
        "email": "info@fpc.pt",
        "name": "Museu das Comunicações",
        "name:ru": "Музей связи",
        "opening_hours": "Tu-Fr 10:00-18:00; Sa 14:00-18:00; PH off",
        "phone": "+351 21 393 5000",
        "start_date": "1997",
        "tourism": "museum",
        "website": "http://fpc.pt",
        "wikidata": "Q6940621",
        "wikipedia": "pt:Museu das Comunicações"
      }
    },
    {
      "type": "node",
      "id": 5090471903,
      "lat": 38.7067592,
      "lon": -9.1373654,
      "tags": {
        "addr:city": "Lisboa",
        "addr:housenumber": "1",
        "addr:postcode": "1100-148",
        "addr:street": "Praça do Comércio",
        "contact:email": "info@museudelisboa.pt",
        "contact:phone": "+351 217 513 200",
        "contact:website": "http://www.museudelisboa.pt/equipamentos/torreao-poente.html",
        "name": "Museu de Lisboa - Torreão Poente",
        "tourism": "museum"
      }
    },
    {
      "type": "node",
      "id": 5090471905,
      "lat": 38.7162531,
      "lon": -9.1397928,
      "tags": {
        "addr:city": "Lisboa",
        "addr:housenumber": "100",
        "addr:postcode": "1150-269",
        "addr:street": "Rua das Portas de Santo Antão",
        "contact:email": "geral@socgeografialisboa.pt",
        "contact:phone": "+351 213 425 401",
        "contact:website": "www.socgeografialisboa.pt/?page_id=65",
        "name": "Museu da Sociedade de Geografia de Lisboa",
        "start_date": "1884",
        "tourism": "museum"
      }
    },
    {
      "type": "node",
      "id": 5090471910,
      "lat": 38.7216803,
      "lon": -9.149145,
      "tags": {
        "addr:city": "Lisboa",
        "addr:housenumber": "41",
        "addr:postcode": "1250-194",
        "addr:street": "Rua Rosa Araújo",
        "contact:email": "info@casa-museumedeirosealmeida.pt",
        "contact:fax": "+351 213 561 951",
        "contact:phone": "+351 213 547 892",
        "contact:website": "www.casa-museumedeirosealmeida.pt",
        "name": "Casa-Museu Medeiros e Almeida",
        "opening_hours": "Mo-Fr 13:00-17:30; Sa 10:00-17:30; Jan 01,May 01,Dec 24-25 off; easter off",
        "tourism": "museum",
        "wikidata": "Q10333395",
        "wikipedia": "pt:Museu António Medeiros e Almeida"
      }
    },
    {
      "type": "node",
      "id": 5090471912,
      "lat": 38.7208511,
      "lon": -9.1486381,
      "tags": {
        "addr:city": "Lisboa",
        "addr:housenumber": "39",
        "addr:street": "Rua Barata Salgueiro",
        "addr:unit": "R/C",
        "contact:email": "cinemateca@cinemateca.pt",
        "contact:fax": "+351 213 523 180",
        "contact:phone": "+351 213 596 200",
        "contact:website": "www.cinemateca.pt",
        "name": "Cinemateca Portuguesa - Museu do Cinema",
        "tourism": "museum"
      }
    },
    {
      "type": "node",
      "id": 5090471916,
      "lat": 38.7127206,
      "lon": -9.1473634,
      "tags": {
        "addr:city": "Lisboa",
        "addr:housenumber": "18",
        "addr:postcode": "1249-032",
        "addr:street": "Rua João Pereira da Rosa",
        "contact:email": "geral@ligacombatentes.org.pt",
        "contact:fax": "+351 213 463 394",
        "contact:phone": "+351 213 468 245;+351 213 468 246;+351 213 468 228+351 213 468 708",
        "contact:website": "www.ligacombatentes.org.pt/museus/museu_na_sede_social",
        "name": "Museu da Liga dos Combatentes (Núcleo da Sede Social)",
        "tourism": "museum"
      }
    },
    {
      "type": "node",
      "id": 5150663698,
      "lat": 38.6957445,
      "lon": -9.1953987,
      "tags": {
        "name": "MAAT - Tejo Power Station",
        "operator": "MAAT",
        "tourism": "museum"
      }
    },
    {
      "type": "node",
      "id": 6216727635,
      "lat": 38.6971187,
      "lon": -9.2080777,
      "tags": {
        "addr:city": "Lisboa",
        "addr:housenumber": "1400-206",
        "addr:place": "Belém",
        "addr:postcode": "1400-206",
        "addr:street": "Praça do Império",
        "building": "yes",
        "email": "geral@museumarinha.pt",
        "name": "Museu de Marinha",
        "name:de": "Marinemuseum",
        "name:en": "Navy Museum",
        "name:es": "Museo de la Marina",
        "name:fr": "Musée de la Marine (Lisbonne)",
        "name:pl": "Muzeum Morskie w Lizbonie",
        "name:ru": "Морской музей (Лиссабон)",
        "opening_hours": "May 01-Sep 30 10:00-18:00; Oct 01-Apr 30 10:00-17:00; easter off; Jan 01,May 01,Dec 25 off",
        "phone": "+351 21 097 7390",
        "start_date": "1962-08-15",
        "tourism": "museum",
        "website": "http://ccm.marinha.pt/pt/museu",
        "wheelchair": "yes",
        "wikidata": "Q1540177",
        "wikipedia": "pt:Museu de Marinha"
      }
    },
    {
      "type": "node",
      "id": 6229435686,
      "lat": 38.7122662,
      "lon": -9.130351,
      "tags": {
        "name:es": "Museo de Artes Decorativas",
        "tourism": "museum"
      }
    },
    {
      "type": "way",
      "id": 24279164,
      "nodes": [
        262881580,
        1725943698,
        1565599338,
        1565599306,
        262881581,
        262881582,
        262881583,
        262881584,
        262881585,
        1565599233,
        262881586,
        1565599223,
        1565599359,
        1565599227,
        1565599260,
        262881587,
        262881580
      ],
      "tags": {
        "alt_name:es": "Museo_Berardo",
        "amenity": "arts_centre",
        "building": "public",
        "name": "Centro Cultural de Belém",
        "name:ko": "벨렝 문화센터",
        "tourism": "museum",
        "wheelchair": "limited",
        "wikidata": "Q1054277",
        "wikipedia": "pt:Centro Cultural de Belém"
      }
    },
    {
      "type": "way",
      "id": 34497689,
      "nodes": [
        398919834,
        398919837,
        398919839,
        398919844,
        398919834
      ],
      "tags": {
        "addr:city": "Lisboa",
        "addr:place": "Belém",
        "addr:postcode": "1400-206",
        "addr:street": "Praça do Império",
        "building": "hangar",
        "name": "Pavilhão das Galeotas",
        "opening_hours": "May 01-Sep 30 10:00-18:00; Oct 01-Apr 30 10:00-17:00; easter off; Jan 01,May 01,Dec 25 off",
        "tourism": "museum"
      }
    },
    {
      "type": "way",
      "id": 55593971,
      "nodes": [
        698735038,
        698735035,
        698735039,
        1987677855,
        1987677438,
        698735036,
        5586295490,
        5586295488,
        5586295492,
        5586295493,
        698735038
      ],
      "tags": {
        "building": "yes",
        "contact:email": "museu@gulbenkian.pt",
        "contact:phone": "+351 217 823 461",
        "contact:website": "https://gulbenkian.pt/museu/",
        "name": "Museu Calouste Gulbenkian",
        "name:de": "Calouste-Gulbenkian-Museum",
        "name:en": "Calouste Gulbenkian Museum",
        "opening_hours": "We-Mo 10:00-18:00",
        "tourism": "museum",
        "wheelchair": "limited",
        "wheelchair:description": "Innen gut rollstuhlgerecht. Lediglich im Außenbereich am Eingang eine sehr steile kurze Rampe.",
        "wikidata": "Q211262",
        "wikipedia": "en:Calouste Gulbenkian Museum"
      }
    },
    {
      "type": "way",
      "id": 95408856,
      "nodes": [
        1106336560,
        1106336428,
        1106336638,
        5757011625,
        1106336358,
        1106336142,
        1106335473,
        5757011621,
        1106337210,
        1106335208,
        498566731,
        5757011649,
        1106336560
      ],
      "tags": {
        "addr:street": "Rua das Amoreiras",
        "alt_name": "Museu da Água;Mãe d'Água das Amoreiras;Mãe de Água das Amoreiras",
        "building": "yes",
        "description": "Depósito terminal do Aqueduto que D. João V mandou construir, projectado por Carlos Mardel, em 1745, foi concluído em 1834. Monumento Nacional, composto pela Casa das Águas Livres e pela Casa do Registo, é um edifício imponente e sólido, de planta",
        "email": "museu@epal.pt",
        "historic": "aqueduct",
        "man_made": "reservoir_covered",
        "name": "Reservatório da Mãe d'Água das Amoreiras",
        "old_name": "Mãe de Água",
        "opening_hours": "10:00-12:30; 13:30-17:30",
        "operator": "EPAL",
        "phone": "+351 218 100 215",
        "source": "dadosabertos.cm-lisboa.pt",
        "source:name": "CICL",
        "source:pkey": "07548a4e-f395-42af-8692-f38dfc1e31ee",
        "tourism": "museum",
        "website": "http://museudaagua.epal.pt",
        "wikidata": "Q10359790",
        "wikipedia": "pt:Reservatório da Mãe d'Água das Amoreiras"
      }
    },
    {
      "type": "way",
      "id": 95408893,
      "nodes": [
        5090471914,
        1106336423,
        1116160461,
        1106336941,
        1106336454,
        1117958730,
        1116215133,
        1116215554,
        5090471914
      ],
      "tags": {
        "addr:city": "Lisboa",
        "addr:postcode": "1200-470",
        "addr:street": "Largo Trindade Coelho",
        "alt_name": "Igreja de São Roque;Museu de São Roque",
        "amenity": "place_of_worship",
        "building": "museum",
        "contact:email": "info@museu-saoroque.com",
        "contact:facebook": "www.facebook.com/museudesaoroque",
        "contact:fax": "+351 213 235 401",
        "contact:phone": "+351 213 235 065",
        "contact:website": "www.museu-saoroque.com",
        "denomination": "roman_catholic",
        "description": "Construída no séc. XVI, a partir de 24 de Março de 1506, sob o orago de São Roque, protector dos doentes da peste, foi Sagrada em 25 de Fevereiro de 1515, pelo Bispo D. Duarte. Em 1553, a Companhia de Jesus toma posse deste templo.",
        "name": "Museu-Igreja de São Roque",
        "opening_hours": "Oct-Mar Mo 14:00-18:00; Oct-Mar Tu-Su 10:00-18:00; Apr-Sep Mo 14:00-19:00; Apr-Sep Tu-Su 10:00-19:00; Apr-Sep Th 10:00-20:00; Jan 01,May 01,Dec 25 off; easter off",
        "operator": "Santa Casa da Misericórdia de Lisboa",
        "owner": "Santa Casa da Misericórdia de Lisboa",
        "religion": "christian",
        "source": "dadosabertos.cm-lisboa.pt",
        "source:name": "CICL",
        "start_date": "1905-01-11",
        "tourism": "museum",
        "website": "http://www.museu-saoroque.com/pt/igreja-de-sao-roque.aspx",
        "wheelchair": "yes",
        "wikidata": "Q1078864"
      }
    },
    {
      "type": "way",
      "id": 96188746,
      "nodes": [
        1114863895,
        1114863993,
        1114863927,
        1114863947,
        1114863822,
        1114863853,
        1114863827,
        1114863967,
        1114863900,
        1114863942,
        1114863913,
        1114863813,
        1114863961,
        1114863895
      ],
      "tags": {
        "addr:housename": "Palácio Foz",
        "addr:housenumber": "25",
        "addr:postcode": "1250",
        "addr:street": "Praça dos Restauradores",
        "building": "house",
        "castle_type": "palace",
        "description": "Antiga propriedade do marquês de Castelo Melhor, este palácio, feito no fim do século XVIII, ao gosto neoclássico, segundo projecto do arquitecto italiano Fabri, foi adquirido em 1889 pelo marquês da Foz que o mandou modificar.",
        "historic": "castle",
        "name": "Palácio Foz",
        "source": "dadosabertos.cm-lisboa.pt",
        "source:name": "CICL",
        "source:pkey": "88176c86-99e9-40c8-a39d-29fb79047303",
        "tourism": "museum"
      }
    },
    {
      "type": "way",
      "id": 96315928,
      "nodes": [
        1116332162,
        1116331964,
        1116332276,
        1116331916,
        1116332241,
        1116332135,
        1116331894,
        1116332338,
        1116332071,
        1116332162
      ],
      "tags": {
        "building": "yes",
        "name": "Museu do Banco de Portugal",
        "tourism": "museum",
        "website": "www.bportugal.pt/pt-PT/ServicosaoPublico/Museu/"
      }
    },
    {
      "type": "way",
      "id": 96321716,
      "nodes": [
        1116377111,
        3339040884,
        1116377067,
        3339040881,
        3339040883,
        1119269967,
        1116377004,
        1116376989,
        1116377034,
        1116377139,
        1116377102,
        3339040882,
        1116377111
      ],
      "tags": {
        "addr:city": "Lisboa",
        "addr:housenumber": "4",
        "addr:postcode": "1200-444",
        "addr:street": "Rua Serpa Pinto",
        "building": "yes",
        "contact:email": "museuchiado@mnac.dgpc.pt",
        "contact:phone": "+351 213 432 148",
        "contact:website": "www.museuartecontemporanea.pt",
        "name": "Museu Nacional de Arte Contemporânea - Museu do Chiado",
        "name:de": "Museum für Moderne Kunst",
        "name:es": "Museo de Chiado",
        "name:ru": "Музей Шиаду",
        "opening_hours": "Tu-Su 10:00-18:00; Jan 01,May 01,Jun 13,Dec 25 off; easter off",
        "tourism": "museum",
        "website": "www.museuartecontemporanea.pt",
        "wikidata": "Q2745620",
        "wikipedia": "pt:Museu do Chiado"
      }
    },
    {
      "type": "way",
      "id": 96322167,
      "nodes": [
        1116381942,
        1116382070,
        1116382000,
        1119241507,
        1116382030,
        1118889232,
        1116381942
      ],
      "tags": {
        "addr:city": "Lisboa",
        "addr:housenumber": "3A",
        "addr:postcode": "1100-059",
        "addr:street": "Rua de São Mamede",
        "alt_name": "Musou do Teatro Romano",
        "alt_name:es": "Museo_Teatro_Romano",
        "building": "yes",
        "contact:email": "info@museudelisboa.pt",
        "contact:phone": "+351 217 513 200",
        "contact:website": "www.museudelisboa.pt",
        "name": "Museu de Lisboa - Teatro Romano",
        "name:en": "Roman Theatre Museum",
        "tourism": "museum",
        "wikipedia": "pt:Museu do Teatro Romano"
      }
    },
    {
      "type": "way",
      "id": 96497160,
      "nodes": [
        1117990658,
        1117990692,
        1117990850,
        1117990493,
        2502863502,
        2502863492,
        2502863488,
        1117990843,
        2502863465,
        2502863464,
        2502863456,
        2502863448,
        2502863449,
        2502863447,
        2502863446,
        2502863442,
        2502863441,
        2502863440,
        1117990772,
        1117990560,
        1117990853,
        2536815929,
        1117990740,
        1117990839,
        1117990655,
        1117990683,
        1117990716,
        1117990781,
        1117990536,
        1117990755,
        1117990548,
        2502863459,
        2502863463,
        2502863468,
        1117990527,
        1117990813,
        1117990609,
        1117990547,
        1117990846,
        2502863496,
        1117990658
      ],
      "tags": {
        "addr:city": "Lisboa",
        "addr:postcode": "1100-366",
        "addr:street": "Largo do Museu de Artilharia",
        "building": "yes",
        "building:colour": "white",
        "building:height": "7",
        "building:levels": "3",
        "contact:email": "museumilitar@portugalmail.pt",
        "contact:fax": "+351 218 842 516",
        "contact:phone": "+351 218 842 453",
        "description": "É o Museu mais antigo da cidade de Lisboa. Nas suas salas de grande beleza ornamental em talha, azulejaria e pintura, estão expostas valiosas colecções, com destaque para a de artilharia, considerada a mais completa do mundo...",
        "museum": "military",
        "name": "Museu Militar de Lisboa",
        "opening_hours": "Tu-Su 10:00-17:00; easter off; Jan 01,May 01,Dec 25 off",
        "roof:colour": "#F56F42",
        "roof:height": "1",
        "roof:material": "roof_tiles",
        "source": "dadosabertos.cm-lisboa.pt",
        "source:pkey": "5372c3be-8ad5-4fd1-af7f-d523812c9e01",
        "tourism": "museum",
        "website": "http://www.exercito.pt/pt/quem-somos/organizacao/ceme/vceme/dhcm/lisboa",
        "wheelchair": "no",
        "wikidata": "Q10333544",
        "wikipedia": "pt:Museu Militar de Lisboa"
      }
    },
    {
      "type": "way",
      "id": 96628628,
      "nodes": [
        1119200992,
        1119201165,
        1119201019,
        1119201027,
        1119200877,
        1119200992
      ],
      "tags": {
        "addr:housename": "Casa dos Bicos",
        "addr:housenumber": "10-10F",
        "addr:postcode": "1100",
        "addr:street": "Rua dos Bacalhoeiros",
        "alt_name": "Casa Brás de Albuquerque",
        "building": "house",
        "castle_type": "palace",
        "contact:email": "info@museudelisboa.pt",
        "contact:phone": "+351 210 993 811",
        "contact:website": "www.museudelisboa.pt",
        "description": "Mandada construir,entre 1521-1523, por Brás de Albuquerque, a sua fachada é Monumento Nacional e exemplar único em Portugal. Foi denominada ''Casa dos Diamantes'' pela sua fachada, revestida por fiadas contínuas de pedras cortadas em pirâmide, à se",
        "historic": "castle",
        "name": "Casa dos Bicos",
        "source": "dadosabertos.cm-lisboa.pt",
        "source:name": "CICL",
        "tourism": "museum",
        "wikidata": "Q2700618",
        "wikipedia": "en:Casa dos Bicos"
      }
    },
    {
      "type": "way",
      "id": 96633811,
      "nodes": [
        1119241725,
        1119241636,
        1119241844,
        1119241804,
        1119241631,
        1119241858,
        1119241725
      ],
      "tags": {
        "addr:housenumber": "4",
        "addr:street": "Rua de São Mamede",
        "alt_name": "Ruínas do teatro romano de Lisboa",
        "building": "roof",
        "description": "Construído na época de Augusto e inaugurado oficialmente na de Nero, ocupa a vertente sul da colina do Castelo. Abandonado no séc. IV d.C., as suas ruínas foram descobertas, em 1798, como consequência da reconstrução pombalina.",
        "historic": "archaeological_site",
        "historic:civilization": "ancient_roman",
        "historic:period": "late_antiquity",
        "name": "Museu do Teatro Romano",
        "name:en": "Roman Theatre Ruins",
        "old_name": "Teatro Romano de Lisboa",
        "site_type": "roman_theatre",
        "source": "dadosabertos.cm-lisboa.pt",
        "source:pkey": "53a96826-6059-4a40-9884-275533d1187c",
        "tourism": "museum",
        "wikidata": "Q11780",
        "wikipedia": "pt:Museu do Teatro Romano"
      }
    },
    {
      "type": "way",
      "id": 96884753,
      "nodes": [
        1122600205,
        1122600139,
        4714003433,
        1122600253,
        1122599773,
        1122600240,
        1122599976,
        1122600345,
        1122599862,
        1122600205
      ],
      "tags": {
        "addr:housenumber": "6;8",
        "addr:street": "Avenida Cinco de Outubro",
        "architect": "Norte Júnior",
        "building": "yes",
        "contact:email": "divulgacao@cmag.dgpc.pt",
        "contact:phone": "+351 213 540 823",
        "contact:website": "http://blogdacmag.blogspot.pt/",
        "heritage": "2",
        "heritage:ref": "IIP",
        "name": "Casa-Museu Doutor Anastácio Gonçalves",
        "old_name": "Casa Malhoa",
        "tourism": "museum",
        "wikidata": "Q5047773",
        "wikipedia": "en:Casa-Museu Dr. Anastácio Gonçalves"
      }
    },
    {
      "type": "way",
      "id": 97761845,
      "nodes": [
        1135566831,
        5544020947,
        1135566858,
        1131598224,
        1131598290,
        1131598258,
        1131598271,
        1131598253,
        1131598247,
        1131598275,
        1131598268,
        1131598261,
        1131598226,
        1131598263,
        1131598288,
        5544020948,
        1135566831
      ],
      "tags": {
        "addr:housename": "Sociedade Nacional de Belas Artes",
        "addr:housenumber": "36",
        "addr:postcode": "1250-044",
        "addr:street": "Rua Barata Salgueiro",
        "building": "yes",
        "building:levels": "2",
        "name": "Sociedade Nacional de Belas Artes",
        "tourism": "museum"
      }
    },
    {
      "type": "way",
      "id": 97780022,
      "nodes": [
        1131757442,
        1131757492,
        1131757514,
        1131757497,
        1131757511,
        1131757454,
        1131757524,
        1131757448,
        1131757477,
        1131757467,
        1131757517,
        1131757445,
        1131757494,
        1131757487,
        5604009615,
        1131757468,
        1131757442
      ],
      "tags": {
        "addr:city": "Lisboa",
        "addr:housename": "Museu do Fado",
        "addr:housenumber": "1",
        "addr:postcode": "1100-139",
        "addr:street": "Largo do Chafariz de Dentro",
        "alt_name": "Estação Elevatória do Chafariz de Dentro;Estação Elevatória de Águas de Alfama;Museu do Fado e da Guitarra",
        "building": "yes",
        "contact:email": "info@museudofado.pt",
        "contact:fax": "+351 218 823 478",
        "contact:phone": "+351 218 823 470",
        "contact:website": "www.museudofado.pt",
        "description": "Com o objectivo de solucionar o problema da falta de água em Lisboa em 1868/1869, edificou-se este reservatório com sistema elevatório que captava as águas de Alfama. Em 1880, o edifício converte-se num simples ponto de apoio da estação principal",
        "name": "Museu do Fado",
        "old_name": "Casa do Fado e da Guitarra Portuguesa;Estação de Águas de Alfama",
        "opening_hours": "Tu-Su 10:00-18:00; Jan 01,May 01,Dec 25 off",
        "operator": "Câmara Municipal de Lisboa",
        "source": "dadosabertos.cm-lisboa.pt",
        "source:name": "CICL/URL",
        "source:pkey": "e9389467-c5f2-4560-8092-4d2ab427034f",
        "tourism": "museum",
        "website": "http://www.museudofado.pt",
        "wikidata": "Q1954395",
        "wikipedia": "pt:Museu do Fado"
      }
    },
    {
      "type": "way",
      "id": 98550235,
      "nodes": [
        1140076533,
        1980294283,
        1140076499,
        1137585455,
        1980294316,
        1140076325,
        1137585484,
        1140076361,
        1140076440,
        1140076379,
        1140076536,
        1140076516,
        1140076531,
        1140076378,
        1140076533
      ],
      "tags": {
        "addr:city": "Lisboa",
        "addr:housenumber": "2",
        "addr:postcode": "1100-411",
        "addr:street": "Largo das Portas do Sol",
        "alt_name": "Museu de Artes Decorativas Portuguesas",
        "building": "house",
        "castle_type": "palace",
        "contact:email": "museu@fress.pt",
        "contact:fax": "+351 218 814 683",
        "contact:phone": "+351 218 814 600",
        "contact:website": "http://www.fress.pt",
        "description": "O Palácio Azurara,classificado como Imóvel de Interesse Público,data do séc. XVII e terá substituído ou integrado algumas construções pré-existentes,encravadas na muralha da Cerca Moura,entre duas torres.De planta irregular,destaca-se o seu port",
        "heritage": "2",
        "historic": "castle",
        "name": "Fundação Ricardo do Espírito Santo Silva",
        "old_name": "Palácio Azurara",
        "opening_hours": "We-Mo 10:00-17:00",
        "source": "dadosabertos.cm-lisboa.pt",
        "source:pkey": "733864b2-91fd-409f-9297-b006b991011b",
        "tourism": "museum",
        "wikidata": "Q10333456"
      }
    },
    {
      "type": "way",
      "id": 98656587,
      "nodes": [
        1141369967,
        1141369897,
        1141369825,
        1141369903,
        1138924556,
        1141369910,
        1141370017,
        1141369975,
        1141369766,
        1141369831,
        1141369812,
        1141369775,
        1141369986,
        1141370010,
        1141369891,
        1141369806,
        1141369778,
        1141369802,
        1141369919,
        1141369970,
        1141369819,
        1141369963,
        1141369913,
        1141369967
      ],
      "tags": {
        "addr:city": "Lisboa",
        "addr:housename": "Palácio Alvor-Pombal",
        "addr:housenumber": "59",
        "addr:postcode": "1249-017",
        "addr:street": "Rua das Janelas Verdes",
        "alt_name": "Convento de Santo Alberto",
        "building": "house",
        "castle_type": "palace",
        "contact:email": "geral@mnaa.dgpc.pt",
        "contact:phone": "+351 213 912 800",
        "contact:website": "http://museudearteantiga.pt",
        "description": "Mandado edificar no séc. XVII por Francisco de Távora,1º Conde de Alvor,sofreu obras de adaptação e restauro nos sécs. XVIII e XIX.Traduz um dos mais perfeitos exemplares de palácio urbano barroco aristocrático...",
        "heritage": "yes",
        "historic": "castle",
        "museum": "art",
        "name": "Museu Nacional de Arte Antiga",
        "name:de": "Nationalmuseum für alte Kunst",
        "name:en": "National Museum of Ancient Art",
        "name:es": "Museo Nacional de Arte Antiguo",
        "name:fr": "Musée national des arts antiques",
        "name:it": "Museo Nazionale di Arte Antica",
        "name:nl": "Nationaal Museum voor Oude Kunst",
        "name:ru": "Национальный музей древнего искусства",
        "old_name": "Palácio Alvor",
        "opening_hours": "Tu-Su 10:00-18:00",
        "short_name": "MNAA",
        "source": "dadosabertos.cm-lisboa.pt",
        "source:pkey": "8041aaf5-1bdc-4dd9-9a44-555631feda42",
        "tourism": "museum",
        "website": "www.museudearteantiga.pt",
        "wikidata": "Q212459",
        "wikipedia": "pt:Museu Nacional de Arte Antiga"
      }
    },
    {
      "type": "way",
      "id": 98709799,
      "nodes": [
        1141979412,
        1141979263,
        1141979427,
        1141979411,
        1141979290,
        1141979491,
        1141979548,
        1141979527,
        1141979412
      ],
      "tags": {
        "addr:city": "Lisboa",
        "addr:housename": "Edifício Pedro Álvares Cabral",
        "addr:place": "Doca de Alcântara (Norte)",
        "addr:street": "Avenida de Brasília",
        "building": "yes",
        "contact:email": "info@foriente.pt",
        "contact:phone": "+351 213 585 200",
        "contact:website": "www.museudooriente.pt",
        "name": "Museu do Oriente",
        "name:de": "Museum des Orients",
        "name:ru": "Музей востока",
        "operator": "Fundação Oriente",
        "tourism": "museum",
        "wikidata": "Q6941112"
      }
    },
    {
      "type": "way",
      "id": 100217735,
      "nodes": [
        1158333952,
        1158334743,
        1158333129,
        1158334030,
        1158334018,
        1158333323,
        1158333534,
        1158333937,
        1158334990,
        1158334903,
        1158334894,
        1158335146,
        1158334926,
        1158334796,
        1158334376,
        1158333952
      ],
      "tags": {
        "building": "yes",
        "name": "Imprensa Nacional - Casa da Moeda",
        "roof:shape": "flat",
        "tourism": "museum",
        "website": "www.incm.pt",
        "wikipedia": "pt:Imprensa Nacional-Casa da Moeda"
      }
    },
    {
      "type": "way",
      "id": 115227670,
      "nodes": [
        1302814035,
        1302814009,
        2179163089,
        1302814030,
        1302814033,
        1302814015,
        689622130,
        689622128,
        689622126,
        2179163141,
        1302814031,
        1302814036,
        1302814034,
        1302814011,
        1302814035
      ],
      "tags": {
        "addr:housenumber": "245",
        "addr:street": "Campo Grande",
        "barrier": "wall",
        "contact:email": "info@museudelisboa.pt",
        "contact:phone": "+351 217 513 200",
        "contact:website": "www.museudelisboa.pt",
        "name": "Museu de Lisboa - Palácio Pimenta",
        "name:de": "Städtisches Museum",
        "old_name": "Museu da Cidade",
        "tourism": "museum",
        "wall": "dry_stone",
        "wheelchair": "limited"
      }
    },
    {
      "type": "way",
      "id": 119015531,
      "nodes": [
        1337971942,
        1337971968,
        1337971971,
        1337971985,
        1337971970,
        1337971920,
        1337971962,
        1337971927,
        1337971978,
        1337971960,
        1337971981,
        1337971934,
        1337971975,
        1337971953,
        1337971951,
        1337971949,
        1337971923,
        1337971966,
        1337971944,
        1337971932,
        1337971942
      ],
      "tags": {
        "addr:housename": "Museu de Arte Popular",
        "addr:street": "Avenida de Brasília",
        "addr:unit": "R/C",
        "amenity": "public_building",
        "building": "yes",
        "contact:email": "map.geral@imc-ip.pt",
        "contact:phone": "+351 213 011 282; +351 213 011 675; +351 213 011 128",
        "contact:website": "https://museuartepopular.wordpress.com",
        "name": "Museu de Arte Popular",
        "name:de": "Volkskundemuseum",
        "name:en": "Museum of Popular Art",
        "name:it": "Museo di arte popolare",
        "opening_hours": "We-Fr 10:00-18:00; Sa,Su 10:00-13:00,14:00-18:00; Jan 01,May 01,Jun 13,Dec 25 off;easter off",
        "start_date": "1948",
        "tourism": "museum",
        "wikidata": "Q10333771"
      }
    },
    {
      "type": "way",
      "id": 141123677,
      "nodes": [
        2803622910,
        1544789974,
        2803622914,
        1544789849,
        5087468935,
        5087468934,
        5087468933,
        5087468932,
        5087468931,
        5087468930,
        5087468929,
        5087468928,
        1544790010,
        1544789903,
        2803622913,
        2803622911,
        2803622910
      ],
      "tags": {
        "addr:city": "Lisboa",
        "addr:country": "PT",
        "addr:postcode": "1400-203",
        "addr:street": "Avenida Ilha da Madeira",
        "contact:email": "geral@mnetnologia.dgpc.pt",
        "contact:fax": "+351 210 109 206",
        "contact:phone": "+351 213 041 160;+351 213 041 169",
        "contact:website": "https://mnetnologia.wordpress.com",
        "name": "Museu Nacional de Etnologia",
        "name:de": "Nationalmuseum für Völkerkunde",
        "name:en": "National Museum of Ethnology",
        "opening_hours": "Tu 14:00-18:00; We-Su 10:00-18:00; Jan 01,May 01,Jun 13,Dec 25 off;easter off",
        "tourism": "museum",
        "wikidata": "Q6974467"
      }
    },
    {
      "type": "way",
      "id": 146637746,
      "nodes": [
        6077651599,
        6077651598,
        6077651597,
        6077651596,
        6077651595,
        6077651594,
        6077651593,
        6077651592,
        6077651591,
        6077651590,
        6077651589,
        6077651588,
        6077651587,
        6077651586,
        6077651585,
        6077647584,
        6077647583,
        6077647582,
        6077647581,
        6077647580,
        6077647579,
        6077647578,
        6077647577,
        6077647576,
        6077647575,
        6077647574,
        6077647573,
        6077651599
      ],
      "tags": {
        "alt_name": "Observatório da Ajuda",
        "building": "yes",
        "layer": "1",
        "name": "Observatório Astronómico de Lisboa",
        "tourism": "museum",
        "wikidata": "Q2065139"
      }
    },
    {
      "type": "way",
      "id": 168984058,
      "nodes": [
        1801637605,
        1801637604,
        1801637601,
        1801637598,
        1801637597,
        1801637593,
        1801637594,
        1801637591,
        1801637592,
        2518995629,
        1801637600,
        1801637599,
        1801637603,
        1801637602,
        1801637605
      ],
      "tags": {
        "addr:city": "Lisboa",
        "addr:housename": "Castelo de São Jorge",
        "addr:street": "Castelo de São Jorge",
        "building": "yes",
        "contact:email": "info@castelodesaojorge.pt",
        "contact:phone": "+351 218 800 620",
        "contact:website": "http://www.castelodesaojorge.pt",
        "description": "O Núcleo Museológico do Castelo de São Jorge, inaugurado em Dezembro de 2008, é o resultado das investigações arqueológicas, que decorreram desde 1996, no âmbito de um protocolo estabelecido entre a Câmara Municipal de Lisboa, a empresa municipa",
        "historic": "archaeological_site",
        "name": "Núcleo Museológico do Castelo de São Jorge",
        "name:ko": "상 조르즈 성 박물관",
        "site_type": "settlement",
        "source": "dadosabertos.cm-lisboa.pt",
        "source:pkey": "b788887f-94dc-488e-9690-754d86aae371",
        "tourism": "museum"
      }
    },
    {
      "type": "way",
      "id": 178227720,
      "nodes": [
        5088757625,
        1867832236,
        4693994934,
        1867832238,
        1867832237,
        5088757625
      ],
      "tags": {
        "addr:city": "Lisboa",
        "addr:housenumber": "193",
        "addr:postcode": "1250-219",
        "addr:street": "Rua de São Bento",
        "building": "yes",
        "contact:email": "casamuseu@amaliarodrigues.pt",
        "contact:phone": "+351 213 971 896",
        "contact:website": "www.amaliarodrigues.pt/artigo-casa-museu-2",
        "name": "Casa-Museu Amália Rodrigues",
        "opening_hours": "Tu-Su 10:00-13:00,14:00-18:00",
        "operator": "Fundação Amália Rodrigues",
        "tourism": "museum"
      }
    },
    {
      "type": "way",
      "id": 186267353,
      "nodes": [
        1969558224,
        1969558208,
        1969558189,
        1969558221,
        1969558202,
        1969558200,
        5649342761,
        1969558218,
        1969558226,
        1969558225,
        1969558197,
        1969558222,
        1969558187,
        1969558217,
        1969558205,
        5649256446,
        1969558213,
        5649256447,
        1969558186,
        5649256448,
        1775273097,
        5649256449,
        1775273099,
        5649256450,
        1969558215,
        4987275826,
        1969558207,
        5649256453,
        1969558192,
        5649256452,
        1969558190,
        5649256451,
        1969558206,
        1969558210,
        1969558224
      ],
      "tags": {
        "addr:housename": "Forte do Bom Sucesso",
        "addr:street": "Avenida de Brasília",
        "alt_name": "Bateria do Bom Sucesso",
        "barrier": "wall",
        "building": "fort",
        "castle_type": "fortress",
        "description": "Edificado em 1780 sob a direcção do general Vallerée. Com o tempo este pequeno forte ficou completamente arruinado tendo, em 1870, sob a direcção do capitão de engenharia Sanches de Castro, sido aproveitados materiais...",
        "historic": "castle",
        "name": "Forte do Bom Sucesso",
        "source": "dadosabertos.cm-lisboa.pt",
        "source:name": "CICL",
        "start_date": "1780",
        "tourism": "museum",
        "wall": "castle_wall",
        "wikidata": "Q10284089"
      }
    },
    {
      "type": "way",
      "id": 188143627,
      "nodes": [
        1987677696,
        1987677657,
        1987677321,
        1987677702,
        1987677729,
        1987677727,
        1987677376,
        1987677843,
        1987677841,
        1987677554,
        1987677400,
        1987677580,
        1987677412,
        1987677695,
        1987677691,
        1987677615,
        1987677319,
        1987677635,
        1987677696
      ],
      "tags": {
        "addr:street": "Rua Doutor Nicolau de Bettencourt",
        "building": "yes",
        "contact:email": "museu@gulbenkian.pt",
        "contact:phone": "+ 351 217 823 474 | +351 217 823 483",
        "contact:website": "https://gulbenkian.pt/cam/colecao-moderna/",
        "name": "Museu Calouste Gulbenkian - Centro de Arte Moderna",
        "name:de": "Zentrum für Moderne Kunst",
        "tourism": "museum"
      }
    },
    {
      "type": "way",
      "id": 237926937,
      "nodes": [
        3983350577,
        3983350622,
        3983350625,
        3983350609,
        2457974496,
        3983350569,
        3983350573,
        3983350577
      ],
      "tags": {
        "addr:housenumber": "12",
        "addr:street": "Rua do Alviela",
        "contact:email": "museu@epal.pt",
        "contact:phone": "+351 218 100 215",
        "contact:website": "museudaagua.blogspot.com",
        "name": "Museu da Água",
        "name:de": "Wassermuseum",
        "name:es": "Museo del Agua",
        "start_date": "1987-10-01",
        "tourism": "museum",
        "website": "http://museudaagua.epal.pt",
        "wikidata": "Q6940623"
      }
    },
    {
      "type": "way",
      "id": 242731077,
      "nodes": [
        2501840742,
        2501840740,
        2501840738,
        2501840743,
        2501840742
      ],
      "tags": {
        "addr:housenumber": "2",
        "addr:street": "Rua de Santa Catarina",
        "building": "house",
        "castle_type": "palace",
        "description": "Palacete oitocentista, construído depois de 1862 por José Pedro Colares Pereira, proprietário da \"Metalúrgica Vulcano e Colares\", foi vendido, no final do séc. XIX, ao industrial Alfredo da Silva, passando posteriormente para o seu genro...",
        "historic": "castle",
        "name": "Associação Nacional das Farmácias",
        "office": "association",
        "old_name": "Palacete de Santa Catarina",
        "source": "dadosabertos.cm-lisboa.pt",
        "source:pkey": "c1e84034-a59e-4eeb-8e83-0e34435100f5",
        "tourism": "museum"
      }
    },
    {
      "type": "way",
      "id": 243501765,
      "nodes": [
        2508978483,
        2508978477,
        2508978475,
        2508978481,
        2508978483
      ],
      "tags": {
        "tourism": "museum"
      }
    },
    {
      "type": "way",
      "id": 243501767,
      "nodes": [
        2508978476,
        2508978471,
        1141067981,
        2508982014,
        2508978473,
        2508978476
      ],
      "tags": {
        "tourism": "museum"
      }
    },
    {
      "type": "way",
      "id": 272545758,
      "nodes": [
        2774839229,
        2774839230,
        2774839232,
        2774839233,
        2774839234,
        2774839235,
        4698054893,
        2774839229
      ],
      "tags": {
        "addr:city": "Lisboa",
        "addr:housenumber": "7",
        "addr:postcode": "1200-472",
        "addr:street": "Rua do Vale",
        "building": "yes",
        "building:levels": "2",
        "contact:email": "info@ateliermuseujuliopomar.pt",
        "contact:phone": "+351 215 880 793",
        "contact:website": "www.ateliermuseujuliopomar.pt",
        "name": "Atelier-Museu Júlio Pomar",
        "opening_hours": "Tu-Su 10:00-13:00,14:00-18:00; Jan 01,May 01,Dec 24-25 off",
        "operator": "Fundação Júlio Pomar",
        "start_date": "2013-04-05",
        "tourism": "museum",
        "website": "www.ateliermuseujuliopomar.pt"
      }
    },
    {
      "type": "way",
      "id": 309147946,
      "nodes": [
        4176074089,
        3144704220,
        3144704221,
        3144704222,
        3144704223,
        3144704224,
        3144704212,
        3144704217,
        3144704218,
        3144704225,
        3144704226,
        3144704227,
        3144704228,
        4176074089
      ],
      "tags": {
        "addr:city": "Lisboa",
        "addr:postcode": "1500-313",
        "addr:street": "Avenida General Norton de Matos",
        "building": "yes",
        "contact:email": "museu@slbenfica.pt",
        "contact:phone": "+351 217 219 590",
        "contact:website": "http://museubenfica.slbenfica.pt",
        "name": "Museu Cosme Damião",
        "tourism": "museum",
        "wikidata": "Q15284280"
      }
    },
    {
      "type": "way",
      "id": 330778764,
      "nodes": [
        1183593677,
        3377793317,
        3377793318,
        3377793319,
        1183593677
      ],
      "tags": {
        "addr:city": "Lisboa",
        "addr:housenumber": "419",
        "addr:postcode": "1500-078",
        "addr:street": "Estrada de Benfica",
        "building": "yes",
        "name": "Biblioteca Museu República e Resistência - Espaço Grandella",
        "operator": "Câmara Municipal de Lisboa",
        "tourism": "museum",
        "website": "http://republicaresistencia.cm-lisboa.pt/"
      }
    },
    {
      "type": "way",
      "id": 359079633,
      "nodes": [
        262949277,
        262949276,
        1565599252,
        1565599270,
        262949275,
        1565599335,
        1565599340,
        262949274,
        262949291,
        262949290,
        1684834681,
        262949289,
        1565599361,
        1565599231,
        1565599276,
        1565599192,
        262949288,
        1565599221,
        1565599299,
        1565599328,
        1565599180,
        1206842888,
        3638719783,
        1206842952,
        1565599303,
        1565599308,
        1206842805,
        1206842986,
        1206843113,
        1206843042,
        1206842911,
        1206843215,
        262949287,
        3638719780,
        1206842786,
        3638721797,
        1206843091,
        1206842963,
        1206842959,
        1206843129,
        1206843078,
        262949286,
        262949285,
        3638721802,
        262949284,
        262949283,
        262949282,
        262949281,
        262949280,
        1802560222,
        1802560217,
        262949279,
        262949278,
        4614190312,
        1802560218,
        1802560221,
        3638721798,
        3638719788,
        3638721799,
        262949277
      ],
      "tags": {
        "amenity": "place_of_worship",
        "building": "yes",
        "building:colour": "#e6e5e0",
        "historic": "monument",
        "name": "Mosteiro dos Jerónimos",
        "name:de": "Hieronymitenkloster",
        "name:en": "Jerónimos Monastery",
        "name:es": "Monasterio de los Jerónimos",
        "name:fr": "Monastère des Hiéronymites",
        "name:pl": "Klasztor Hieronimitów",
        "name:ru": "Жеронимуш",
        "opening_hours": "Oct-Apr 10:00-17:30; May-Sep 10:00-18:30; Mo off; Jan 1 off; May 1 off; Dec 25 off",
        "religion": "christian",
        "toilets:wheelchair": "yes",
        "tourism": "museum",
        "website": "http://www.mosteirojeronimos.pt",
        "wheelchair": "limited",
        "wheelchair:description": "EG fast komplett befahrbar. Rolli und Begleitung hat Vortritt + freien Eintritt. Rampen vorhanden + Hilfe vom Personal. Rollitoilette: ja. Kleiner Bereich im EG mit 1-2 hohen Stufen. OG nur über lange Treppe erreichbar.",
        "wikipedia": "pt:Mosteiro dos Jerónimos"
      }
    },
    {
      "type": "way",
      "id": 446717674,
      "nodes": [
        5079244553,
        2523193865,
        5079244536,
        4439533153,
        4439533155,
        5079413470,
        4439533159,
        2523193938,
        5079413472,
        4439533160,
        4439533163,
        5079413471,
        4439533166,
        4439533167,
        4439533170,
        4439533174,
        4439533177,
        4439533176,
        5079244555,
        5079244562,
        4439533173,
        5079244563,
        4439533171,
        5079242096,
        5079244521,
        5079244564,
        4439533169,
        5079244554,
        2523193902,
        4439533164,
        4959867478,
        4439533161,
        4439533157,
        4959867479,
        4439533156,
        5079244553
      ],
      "tags": {
        "addr:city": "Lisboa",
        "addr:housename": "Central Tejo",
        "addr:postcode": "1300-598",
        "addr:street": "Avenida de Brasília",
        "alt_name": "Central Tejo",
        "building": "yes",
        "contact:email": "maat@edp.pt",
        "contact:phone": "+351 210 028 130",
        "contact:website": "www.maat.pt",
        "name": "Museu de Arte, Arquitetura e Tecnologia (MAAT)",
        "opening_hours": "Mo-Su 12:00-20:00; Tu off; Jan 01,May 01,Dec 25",
        "operator": "Fundação EDP",
        "owner": "Fundação EDP",
        "short_name": "MAAT",
        "tourism": "museum",
        "website": "www.maat.pt",
        "wheelchair": "yes",
        "wikipedia": "pt:Museu de Arte, Arquitetura e Tecnologia"
      }
    },
    {
      "type": "way",
      "id": 461640436,
      "nodes": [
        4571143388,
        4571143387,
        4571143386,
        4571143385,
        4571143384,
        4571143383,
        4571143388
      ],
      "tags": {
        "name": "Posto de Comando do MFA",
        "tourism": "museum"
      }
    },
    {
      "type": "relation",
      "id": 1396217,
      "members": [
        {
          "type": "way",
          "ref": 97035320,
          "role": "inner"
        },
        {
          "type": "way",
          "ref": 96315914,
          "role": "outer"
        }
      ],
      "tags": {
        "addr:city": "Lisboa",
        "addr:country": "PT",
        "addr:housenumber": "24",
        "addr:postcode": "1100-053",
        "addr:street": "Rua Augusta",
        "building": "yes",
        "contact:email": "mude@cm-lisboa.pt",
        "contact:phone": "+351 218 171 892",
        "contact:website": "www.mude.pt",
        "name": "Museu do Design e da Moda, Coleção Francisco Capelo",
        "opening_hours": "Tu-Su 10:00-18:00; Dec 24, Dec 31 10:00-14:00; Jan 01,May 01,Dec 25 off",
        "short_name": "MUDE",
        "tourism": "museum",
        "type": "multipolygon",
        "website": "http://www.mude.pt/",
        "wikidata": "Q1954392",
        "wikipedia": "pt:Museu do Design e da Moda"
      }
    },
    {
      "type": "relation",
      "id": 1396247,
      "members": [
        {
          "type": "way",
          "ref": 97042756,
          "role": "outer"
        },
        {
          "type": "way",
          "ref": 97042755,
          "role": "inner"
        }
      ],
      "tags": {
        "addr:city": "Lisboa",
        "addr:housenumber": "56;58",
        "addr:place": "Universidade de Lisboa",
        "addr:postcode": "1250-102",
        "addr:street": "Rua da Escola Politécnica",
        "building": "yes",
        "contact:email": "geral@museus.ulisboa.pt",
        "contact:phone": "+351 213 921 800; +351 213 921 808",
        "contact:website": "www.museus.ulisboa.pt",
        "name": "Museu Nacional de História Natural e da Ciência",
        "name:de": "Museum für Naturgeschichte und Wissenschaft",
        "name:en": "Museum of Natural History and Science",
        "old_name": "Escola Politécnica;Noviciado da Cotovia",
        "old_name:de": "Polytechnische Schule",
        "operator": "Universidade de Lisboa",
        "short_name": "MUHNAC",
        "tourism": "museum",
        "type": "multipolygon",
        "wikidata": "Q10333586",
        "wikipedia": "pt:Museu Nacional de História Natural e da Ciência"
      }
    },
    {
      "type": "relation",
      "id": 3209820,
      "members": [
        {
          "type": "way",
          "ref": 238166510,
          "role": "inner"
        },
        {
          "type": "way",
          "ref": 350456254,
          "role": "outer"
        }
      ],
      "tags": {
        "addr:housenumber": "4",
        "addr:street": "Rua da Madre de Deus",
        "alt_name": "Igreja e Convento da Madre de Deus;Convento da Madre de Deus",
        "alt_name:es": "Museo Azulejo",
        "building": "yes",
        "building:colour": "white",
        "building:levels": "3",
        "contact:phone": "+351 218 100 340",
        "denomination": "roman_catholic",
        "description": "Fundado em 1509 pela Rainha D. Leonor, sofreu várias campanhas de obras, nomeadamente após o terramoto de 1755, pelo que o edifício traduz uma súmula de estilos: mudéjar (tecto da capela de D. Leonor); manuelino (piso térreo do claustrinho e torre",
        "historic": "monastery",
        "name": "Museu Nacional do Azulejo",
        "name:en": "National Azulejo Museum",
        "name:ru": "Музей азулежу",
        "old_name": "Convento da Madre de Deus;Convento de clarissas da Madre de Deus",
        "religion": "christian",
        "source:name": "CICL",
        "start_date": "1509",
        "tourism": "museum",
        "type": "multipolygon",
        "website": "http://www.museudoazulejo.pt",
        "wheelchair": "yes",
        "wikidata": "Q2313815",
        "wikipedia": "pt:Museu Nacional do Azulejo"
      }
    },
    {
      "type": "relation",
      "id": 3258277,
      "members": [
        {
          "type": "way",
          "ref": 138146722,
          "role": "outer"
        },
        {
          "type": "way",
          "ref": 241567684,
          "role": "inner"
        },
        {
          "type": "way",
          "ref": 241567683,
          "role": "inner"
        },
        {
          "type": "way",
          "ref": 426050687,
          "role": "inner"
        }
      ],
      "tags": {
        "alt_name": "Fábrica Nacional de Cordoaria",
        "building": "museum",
        "heritage": "2",
        "heritage:ref": "MN",
        "heritage:since": "1996",
        "heritage:website": "http://www.patrimoniocultural.gov.pt/pt/patrimonio/patrimonio-imovel/pesquisa-do-patrimonio/classificado-ou-em-vias-de-classificacao/geral/view/70634",
        "name": "Cordoaria Nacional",
        "old_name": "Real Fábrica da Cordoaria da Junqueira;Real Cordoaria da Junqueira",
        "start_date": "1779",
        "tourism": "museum",
        "type": "multipolygon",
        "wikidata": "Q10260557",
        "wikipedia": "pt:Cordoaria Nacional"
      }
    },
    {
      "type": "relation",
      "id": 3258300,
      "members": [
        {
          "type": "way",
          "ref": 182816043,
          "role": "inner"
        },
        {
          "type": "way",
          "ref": 156208228,
          "role": "inner"
        },
        {
          "type": "way",
          "ref": 359079633,
          "role": "outer"
        }
      ],
      "tags": {
        "addr:street": "Praça do Império",
        "amenity": "place_of_worship",
        "building": "yes",
        "building:colour": "#e6e5e0",
        "description": "A edificação do Mosteiro da Ordem de São Jerónimo, fundado, em 1496, por iniciativa de D. Manuel I, com o objetivo de torná-lo Panteão Real, teve início, com a obra da igreja dedicada a Santa Maria de Belém, em 1502, sob a orientação de Diogo d",
        "email": "geral@mjeronimos.dgpc.pt",
        "historic": "monument",
        "name": "Mosteiro dos Jerónimos",
        "name:de": "Hieronymitenkloster",
        "name:en": "Jerónimos Monastery",
        "name:es": "Monasterio de los Jerónimos",
        "name:fr": "Monastère des Hiéronymites",
        "name:ko": "제로니무스 수도원",
        "name:pl": "Klasztor Hieronimitów",
        "name:ru": "Жеронимуш",
        "opening_hours": "Oct-Apr 10:00-17:30; May-Sep 10:00-18:30; Mo off; Jan 1 off; May 1 off; Dec 25 off",
        "phone": "+351 213 620 034",
        "religion": "christian",
        "source:name": "CICL",
        "source:pkey": "c800a8b1-6d86-4f47-9dd0-3f4bfc2f3c26",
        "tourism": "museum",
        "type": "multipolygon",
        "website": "http://www.mosteirojeronimos.pt",
        "wikidata": "Q272781",
        "wikipedia": "en:Jerónimos Monastery"
      }
    },
    {
      "type": "relation",
      "id": 6053715,
      "members": [
        {
          "type": "way",
          "ref": 28239307,
          "role": "outer"
        },
        {
          "type": "way",
          "ref": 403833325,
          "role": "inner"
        }
      ],
      "tags": {
        "addr:city": "Lisboa",
        "addr:housename": "Palácio Nacional da Ajuda",
        "addr:postcode": "1349-021",
        "addr:street": "Largo da Ajuda",
        "alt_name": "Paço da Ajuda",
        "alt_name:es": "Palacio_Ajuda",
        "building": "house",
        "castle_type": "palace",
        "contact:email": "geral@pnajuda.dgpc.pt",
        "contact:fax": "+351 213 648 223",
        "contact:phone": "+351 213 637 095;+351 213 620 264",
        "contact:website": "www.palacioajuda.gov.pt",
        "description": "Classificado como Monumento Nacional, foi construído após o terramoto de 1755 para substituir a ''Real Barraca'', assim designada por ser de madeira. O projeto inicial (1795), de Manuel Caetano de Sousa, sofreu uma significativa alteração com o novo",
        "email": "geral@pnajuda.dgpc.pt",
        "heritage": "2",
        "heritage:operator": "DGPC",
        "heritage:ref": "MN",
        "heritage:since": "1910",
        "heritage:website": "http://www.patrimoniocultural.gov.pt/pt/patrimonio/patrimonio-imovel/pesquisa-do-patrimonio/classificado-ou-em-vias-de-classificacao/geral/view/70252",
        "historic": "castle",
        "name": "Palácio Nacional da Ajuda",
        "name:ru": "Королевский Дворец Ажуда",
        "opening_hours": "Mo-Su 10:00-18:00; We off",
        "phone": "+351 213 637 095",
        "source": "dadosabertos.cm-lisboa.pt",
        "source:name": "CICL",
        "tourism": "museum",
        "type": "multipolygon",
        "website": "http://www.palacioajuda.gov.pt/",
        "wikidata": "Q1478288"
      }
    },
    {
      "type": "relation",
      "id": 7554558,
      "members": [
        {
          "type": "way",
          "ref": 189596818,
          "role": "outer"
        },
        {
          "type": "way",
          "ref": 440370034,
          "role": "outer"
        },
        {
          "type": "way",
          "ref": 485215120,
          "role": "outer"
        }
      ],
      "tags": {
        "contact:email": "museu@carris.pt",
        "contact:phone": "+351 213 613 087",
        "contact:website": "http://museu.carris.pt",
        "name": "Museu da Carris",
        "opening_hours": "Mo-Fr 10:00-18:00; Sa 10:00-13:00,14:00-18:00; PH off",
        "tourism": "museum",
        "type": "multipolygon",
        "wikidata": "Q5046467",
        "wikipedia": "pt:Museu da Carris"
      }
    },
    {
      "type": "node",
      "id": 1775273097,
      "lat": 38.6932756,
      "lon": -9.2187801
    },
    {
      "type": "node",
      "id": 1775273099,
      "lat": 38.6932026,
      "lon": -9.2188418
    },
    {
      "type": "node",
      "id": 1969558186,
      "lat": 38.6933221,
      "lon": -9.2186892
    },
    {
      "type": "node",
      "id": 1969558187,
      "lat": 38.6929704,
      "lon": -9.2181969
    },
    {
      "type": "node",
      "id": 1969558189,
      "lat": 38.69202,
      "lon": -9.2173547
    },
    {
      "type": "node",
      "id": 1969558190,
      "lat": 38.6926577,
      "lon": -9.218698
    },
    {
      "type": "node",
      "id": 1969558192,
      "lat": 38.6928,
      "lon": -9.218786
    },
    {
      "type": "node",
      "id": 1969558197,
      "lat": 38.6927139,
      "lon": -9.2182776
    },
    {
      "type": "node",
      "id": 1969558200,
      "lat": 38.6921737,
      "lon": -9.2169714
    },
    {
      "type": "node",
      "id": 1969558202,
      "lat": 38.6920104,
      "lon": -9.2171833
    },
    {
      "type": "node",
      "id": 1969558205,
      "lat": 38.6933284,
      "lon": -9.2185099
    },
    {
      "type": "node",
      "id": 1969558206,
      "lat": 38.6925172,
      "lon": -9.2185377
    },
    {
      "type": "node",
      "id": 1969558207,
      "lat": 38.6929199,
      "lon": -9.218821
    },
    {
      "type": "node",
      "id": 1969558208,
      "lat": 38.6919686,
      "lon": -9.2174166
    },
    {
      "type": "node",
      "id": 1969558210,
      "lat": 38.6923705,
      "lon": -9.2183098
    },
    {
      "type": "node",
      "id": 1969558213,
      "lat": 38.693337,
      "lon": -9.2186023
    },
    {
      "type": "node",
      "id": 1969558215,
      "lat": 38.6930577,
      "lon": -9.2188382
    },
    {
      "type": "node",
      "id": 1969558217,
      "lat": 38.6933005,
      "lon": -9.2184345
    },
    {
      "type": "node",
      "id": 1969558218,
      "lat": 38.6924668,
      "lon": -9.2175642
    },
    {
      "type": "node",
      "id": 1969558221,
      "lat": 38.6920314,
      "lon": -9.2172503
    },
    {
      "type": "node",
      "id": 1969558222,
      "lat": 38.6928553,
      "lon": -9.2183739
    },
    {
      "type": "node",
      "id": 1969558224,
      "lat": 38.691913,
      "lon": -9.2174595
    },
    {
      "type": "node",
      "id": 1969558225,
      "lat": 38.6924019,
      "lon": -9.2178592
    },
    {
      "type": "node",
      "id": 1969558226,
      "lat": 38.6923391,
      "lon": -9.2177358
    },
    {
      "type": "node",
      "id": 4987275826,
      "lat": 38.6929791,
      "lon": -9.2188323
    },
    {
      "type": "node",
      "id": 5649256446,
      "lat": 38.6933358,
      "lon": -9.2185553
    },
    {
      "type": "node",
      "id": 5649256447,
      "lat": 38.6933318,
      "lon": -9.2186493
    },
    {
      "type": "node",
      "id": 5649256448,
      "lat": 38.6933021,
      "lon": -9.2187381
    },
    {
      "type": "node",
      "id": 5649256449,
      "lat": 38.693243,
      "lon": -9.2188146
    },
    {
      "type": "node",
      "id": 5649256450,
      "lat": 38.6931221,
      "lon": -9.2188436
    },
    {
      "type": "node",
      "id": 5649256451,
      "lat": 38.6925825,
      "lon": -9.2186245
    },
    {
      "type": "node",
      "id": 5649256452,
      "lat": 38.692727,
      "lon": -9.218748
    },
    {
      "type": "node",
      "id": 5649256453,
      "lat": 38.6928645,
      "lon": -9.2188088
    },
    {
      "type": "node",
      "id": 5649342761,
      "lat": 38.6923162,
      "lon": -9.2172596
    },
    {
      "type": "node",
      "id": 262881586,
      "lat": 38.6956764,
      "lon": -9.209786
    },
    {
      "type": "node",
      "id": 262881587,
      "lat": 38.6944462,
      "lon": -9.2094396
    },
    {
      "type": "node",
      "id": 1337971920,
      "lat": 38.693423,
      "lon": -9.2080512
    },
    {
      "type": "node",
      "id": 1337971923,
      "lat": 38.694069,
      "lon": -9.2087174
    },
    {
      "type": "node",
      "id": 1337971927,
      "lat": 38.6933473,
      "lon": -9.2082658
    },
    {
      "type": "node",
      "id": 1337971932,
      "lat": 38.6939313,
      "lon": -9.2085103
    },
    {
      "type": "node",
      "id": 1337971934,
      "lat": 38.6934498,
      "lon": -9.2087876
    },
    {
      "type": "node",
      "id": 1337971942,
      "lat": 38.693984,
      "lon": -9.2082241
    },
    {
      "type": "node",
      "id": 1337971944,
      "lat": 38.6938794,
      "lon": -9.2084946
    },
    {
      "type": "node",
      "id": 1337971949,
      "lat": 38.6940258,
      "lon": -9.2089521
    },
    {
      "type": "node",
      "id": 1337971951,
      "lat": 38.6937127,
      "lon": -9.2088573
    },
    {
      "type": "node",
      "id": 1337971953,
      "lat": 38.6937795,
      "lon": -9.2084949
    },
    {
      "type": "node",
      "id": 1337971960,
      "lat": 38.6933148,
      "lon": -9.2083261
    },
    {
      "type": "node",
      "id": 1337971962,
      "lat": 38.6933816,
      "lon": -9.2082762
    },
    {
      "type": "node",
      "id": 1337971966,
      "lat": 38.6938505,
      "lon": -9.2086512
    },
    {
      "type": "node",
      "id": 1337971968,
      "lat": 38.6938028,
      "lon": -9.2081692
    },
    {
      "type": "node",
      "id": 1337971970,
      "lat": 38.6936008,
      "lon": -9.208105
    },
    {
      "type": "node",
      "id": 1337971971,
      "lat": 38.6937938,
      "lon": -9.2082182
    },
    {
      "type": "node",
      "id": 1337971975,
      "lat": 38.6935184,
      "lon": -9.2084158
    },
    {
      "type": "node",
      "id": 1337971978,
      "lat": 38.6933351,
      "lon": -9.2083323
    },
    {
      "type": "node",
      "id": 1337971981,
      "lat": 38.6932414,
      "lon": -9.2087245
    },
    {
      "type": "node",
      "id": 1337971985,
      "lat": 38.6935913,
      "lon": -9.2081569
    },
    {
      "type": "node",
      "id": 1565599223,
      "lat": 38.695544,
      "lon": -9.2097319
    },
    {
      "type": "node",
      "id": 1565599227,
      "lat": 38.694848,
      "lon": -9.2096552
    },
    {
      "type": "node",
      "id": 1565599233,
      "lat": 38.6956852,
      "lon": -9.2097507
    },
    {
      "type": "node",
      "id": 1565599260,
      "lat": 38.6948596,
      "lon": -9.2096088
    },
    {
      "type": "node",
      "id": 1565599359,
      "lat": 38.695497,
      "lon": -9.2099207
    },
    {
      "type": "node",
      "id": 262881580,
      "lat": 38.6950061,
      "lon": -9.2071932
    },
    {
      "type": "node",
      "id": 1725943698,
      "lat": 38.6957103,
      "lon": -9.2074813
    },
    {
      "type": "node",
      "id": 262881581,
      "lat": 38.6963821,
      "lon": -9.2078551
    },
    {
      "type": "node",
      "id": 262881582,
      "lat": 38.6961291,
      "lon": -9.2088702
    },
    {
      "type": "node",
      "id": 262881583,
      "lat": 38.6962721,
      "lon": -9.2089287
    },
    {
      "type": "node",
      "id": 262881584,
      "lat": 38.6960319,
      "lon": -9.2098926
    },
    {
      "type": "node",
      "id": 262881585,
      "lat": 38.6959055,
      "lon": -9.2098409
    },
    {
      "type": "node",
      "id": 262949274,
      "lat": 38.697069,
      "lon": -9.2080757
    },
    {
      "type": "node",
      "id": 262949289,
      "lat": 38.6980058,
      "lon": -9.2082857
    },
    {
      "type": "node",
      "id": 262949290,
      "lat": 38.6972021,
      "lon": -9.2079414
    },
    {
      "type": "node",
      "id": 262949291,
      "lat": 38.6971571,
      "lon": -9.2081135
    },
    {
      "type": "node",
      "id": 398919834,
      "lat": 38.6974774,
      "lon": -9.2097163
    },
    {
      "type": "node",
      "id": 398919837,
      "lat": 38.6975924,
      "lon": -9.209269
    },
    {
      "type": "node",
      "id": 398919839,
      "lat": 38.6968127,
      "lon": -9.20894
    },
    {
      "type": "node",
      "id": 398919844,
      "lat": 38.6966977,
      "lon": -9.2093873
    },
    {
      "type": "node",
      "id": 1206843132,
      "lat": 38.6979409,
      "lon": -9.2081067
    },
    {
      "type": "node",
      "id": 1206843202,
      "lat": 38.6973592,
      "lon": -9.2078673
    },
    {
      "type": "node",
      "id": 1684834681,
      "lat": 38.6979228,
      "lon": -9.2082501
    },
    {
      "type": "node",
      "id": 262949275,
      "lat": 38.6972966,
      "lon": -9.2070843
    },
    {
      "type": "node",
      "id": 262949276,
      "lat": 38.6976115,
      "lon": -9.2059624
    },
    {
      "type": "node",
      "id": 262949277,
      "lat": 38.6975396,
      "lon": -9.2059316
    },
    {
      "type": "node",
      "id": 262949278,
      "lat": 38.6976661,
      "lon": -9.2052656
    },
    {
      "type": "node",
      "id": 262949279,
      "lat": 38.6975745,
      "lon": -9.2052264
    },
    {
      "type": "node",
      "id": 262949280,
      "lat": 38.6977218,
      "lon": -9.2050563
    },
    {
      "type": "node",
      "id": 262949281,
      "lat": 38.6978085,
      "lon": -9.2050934
    },
    {
      "type": "node",
      "id": 262949282,
      "lat": 38.6978652,
      "lon": -9.204876
    },
    {
      "type": "node",
      "id": 262949283,
      "lat": 38.698002,
      "lon": -9.2049346
    },
    {
      "type": "node",
      "id": 262949284,
      "lat": 38.6979444,
      "lon": -9.2051552
    },
    {
      "type": "node",
      "id": 262949285,
      "lat": 38.6984969,
      "lon": -9.2053764
    },
    {
      "type": "node",
      "id": 262949286,
      "lat": 38.6989959,
      "lon": -9.2055902
    },
    {
      "type": "node",
      "id": 262949287,
      "lat": 38.6986372,
      "lon": -9.2068884
    },
    {
      "type": "node",
      "id": 262949288,
      "lat": 38.6984411,
      "lon": -9.2065854
    },
    {
      "type": "node",
      "id": 1206842786,
      "lat": 38.6987895,
      "lon": -9.2063049
    },
    {
      "type": "node",
      "id": 1206842805,
      "lat": 38.6984956,
      "lon": -9.2064694
    },
    {
      "type": "node",
      "id": 1206842827,
      "lat": 38.6972629,
      "lon": -9.2076573
    },
    {
      "type": "node",
      "id": 1206842862,
      "lat": 38.6982344,
      "lon": -9.2060146
    },
    {
      "type": "node",
      "id": 1206842866,
      "lat": 38.6975908,
      "lon": -9.2070476
    },
    {
      "type": "node",
      "id": 1206842879,
      "lat": 38.6982933,
      "lon": -9.2056293
    },
    {
      "type": "node",
      "id": 1206842888,
      "lat": 38.6976313,
      "lon": -9.2062515
    },
    {
      "type": "node",
      "id": 1206842902,
      "lat": 38.6976856,
      "lon": -9.2065729
    },
    {
      "type": "node",
      "id": 1206842910,
      "lat": 38.6981618,
      "lon": -9.2060533
    },
    {
      "type": "node",
      "id": 1206842911,
      "lat": 38.6985947,
      "lon": -9.2067905
    },
    {
      "type": "node",
      "id": 1206842916,
      "lat": 38.6978898,
      "lon": -9.2058636
    },
    {
      "type": "node",
      "id": 1206842942,
      "lat": 38.6976008,
      "lon": -9.2068848
    },
    {
      "type": "node",
      "id": 1206842952,
      "lat": 38.6976968,
      "lon": -9.2060003
    },
    {
      "type": "node",
      "id": 1206842959,
      "lat": 38.6988425,
      "lon": -9.2058385
    },
    {
      "type": "node",
      "id": 1206842963,
      "lat": 38.6984211,
      "lon": -9.205658
    },
    {
      "type": "node",
      "id": 1206842966,
      "lat": 38.6973415,
      "lon": -9.2073437
    },
    {
      "type": "node",
      "id": 1206842981,
      "lat": 38.69792,
      "lon": -9.2059546
    },
    {
      "type": "node",
      "id": 1206842986,
      "lat": 38.6985309,
      "lon": -9.206334
    },
    {
      "type": "node",
      "id": 1206843003,
      "lat": 38.6975629,
      "lon": -9.2070361
    },
    {
      "type": "node",
      "id": 1206843036,
      "lat": 38.6975031,
      "lon": -9.2072692
    },
    {
      "type": "node",
      "id": 1206843042,
      "lat": 38.6985455,
      "lon": -9.2067694
    },
    {
      "type": "node",
      "id": 1206843048,
      "lat": 38.6979755,
      "lon": -9.2055689
    },
    {
      "type": "node",
      "id": 1206843069,
      "lat": 38.6974782,
      "lon": -9.2068344
    },
    {
      "type": "node",
      "id": 1206843078,
      "lat": 38.698838,
      "lon": -9.2061952
    },
    {
      "type": "node",
      "id": 1206843087,
      "lat": 38.6982764,
      "lon": -9.2066001
    },
    {
      "type": "node",
      "id": 1206843091,
      "lat": 38.6983063,
      "lon": -9.2060979
    },
    {
      "type": "node",
      "id": 1206843096,
      "lat": 38.6974711,
      "lon": -9.207397
    },
    {
      "type": "node",
      "id": 1206843113,
      "lat": 38.6986462,
      "lon": -9.2063834
    },
    {
      "type": "node",
      "id": 1206843129,
      "lat": 38.6987584,
      "lon": -9.206161
    },
    {
      "type": "node",
      "id": 1206843139,
      "lat": 38.6973979,
      "lon": -9.2077128
    },
    {
      "type": "node",
      "id": 1206843162,
      "lat": 38.6982646,
      "lon": -9.2066472
    },
    {
      "type": "node",
      "id": 1206843172,
      "lat": 38.6983205,
      "lon": -9.2057145
    },
    {
      "type": "node",
      "id": 1206843176,
      "lat": 38.6975322,
      "lon": -9.2072812
    },
    {
      "type": "node",
      "id": 1206843187,
      "lat": 38.6980553,
      "lon": -9.2055241
    },
    {
      "type": "node",
      "id": 1206843195,
      "lat": 38.6977229,
      "lon": -9.2064243
    },
    {
      "type": "node",
      "id": 1206843207,
      "lat": 38.697557,
      "lon": -9.20652
    },
    {
      "type": "node",
      "id": 1206843215,
      "lat": 38.698576,
      "lon": -9.2068622
    },
    {
      "type": "node",
      "id": 1206843230,
      "lat": 38.6983227,
      "lon": -9.2066191
    },
    {
      "type": "node",
      "id": 1565599180,
      "lat": 38.6978487,
      "lon": -9.2063446
    },
    {
      "type": "node",
      "id": 1565599192,
      "lat": 38.6982522,
      "lon": -9.207309
    },
    {
      "type": "node",
      "id": 1565599221,
      "lat": 38.6982979,
      "lon": -9.206524
    },
    {
      "type": "node",
      "id": 1565599231,
      "lat": 38.6982332,
      "lon": -9.2075472
    },
    {
      "type": "node",
      "id": 1565599252,
      "lat": 38.6973386,
      "lon": -9.2070081
    },
    {
      "type": "node",
      "id": 1565599255,
      "lat": 38.6981621,
      "lon": -9.20726
    },
    {
      "type": "node",
      "id": 1565599268,
      "lat": 38.6981028,
      "lon": -9.2074609
    },
    {
      "type": "node",
      "id": 1565599270,
      "lat": 38.6973187,
      "lon": -9.2069996
    },
    {
      "type": "node",
      "id": 1565599276,
      "lat": 38.698291,
      "lon": -9.2073256
    },
    {
      "type": "node",
      "id": 1565599299,
      "lat": 38.69831,
      "lon": -9.2064777
    },
    {
      "type": "node",
      "id": 1565599301,
      "lat": 38.6981157,
      "lon": -9.2072409
    },
    {
      "type": "node",
      "id": 1565599303,
      "lat": 38.6977514,
      "lon": -9.2060237
    },
    {
      "type": "node",
      "id": 1565599306,
      "lat": 38.6958565,
      "lon": -9.20764
    },
    {
      "type": "node",
      "id": 1565599308,
      "lat": 38.6977216,
      "lon": -9.2061379
    },
    {
      "type": "node",
      "id": 1565599328,
      "lat": 38.6978639,
      "lon": -9.2062865
    },
    {
      "type": "node",
      "id": 1565599335,
      "lat": 38.69726,
      "lon": -9.2072244
    },
    {
      "type": "node",
      "id": 1565599338,
      "lat": 38.6958788,
      "lon": -9.2075503
    },
    {
      "type": "node",
      "id": 1565599340,
      "lat": 38.697288,
      "lon": -9.2072364
    },
    {
      "type": "node",
      "id": 1565599361,
      "lat": 38.698202,
      "lon": -9.2075338
    },
    {
      "type": "node",
      "id": 1565599375,
      "lat": 38.6980645,
      "lon": -9.2074451
    },
    {
      "type": "node",
      "id": 1802560217,
      "lat": 38.6976149,
      "lon": -9.2050716
    },
    {
      "type": "node",
      "id": 1802560218,
      "lat": 38.6976434,
      "lon": -9.2053524
    },
    {
      "type": "node",
      "id": 1802560221,
      "lat": 38.6976875,
      "lon": -9.2053713
    },
    {
      "type": "node",
      "id": 1802560222,
      "lat": 38.6977074,
      "lon": -9.2051112
    },
    {
      "type": "node",
      "id": 3638719780,
      "lat": 38.6987563,
      "lon": -9.2064318
    },
    {
      "type": "node",
      "id": 3638719783,
      "lat": 38.6976671,
      "lon": -9.206114
    },
    {
      "type": "node",
      "id": 3638719788,
      "lat": 38.6975649,
      "lon": -9.2057691
    },
    {
      "type": "node",
      "id": 3638721797,
      "lat": 38.6983748,
      "lon": -9.2061273
    },
    {
      "type": "node",
      "id": 3638721798,
      "lat": 38.6975818,
      "lon": -9.2057763
    },
    {
      "type": "node",
      "id": 3638721799,
      "lat": 38.6975242,
      "lon": -9.205925
    },
    {
      "type": "node",
      "id": 3638721802,
      "lat": 38.6984933,
      "lon": -9.2053904
    },
    {
      "type": "node",
      "id": 4614190312,
      "lat": 38.6976546,
      "lon": -9.2053095
    },
    {
      "type": "node",
      "id": 1544789849,
      "lat": 38.7055112,
      "lon": -9.2078599
    },
    {
      "type": "node",
      "id": 1544789903,
      "lat": 38.7049775,
      "lon": -9.2095672
    },
    {
      "type": "node",
      "id": 1544789974,
      "lat": 38.7055447,
      "lon": -9.2079391
    },
    {
      "type": "node",
      "id": 1544790010,
      "lat": 38.7049178,
      "lon": -9.2095457
    },
    {
      "type": "node",
      "id": 2803622910,
      "lat": 38.7050958,
      "lon": -9.2094491
    },
    {
      "type": "node",
      "id": 2803622911,
      "lat": 38.7050685,
      "lon": -9.2095175
    },
    {
      "type": "node",
      "id": 2803622913,
      "lat": 38.7050309,
      "lon": -9.2095511
    },
    {
      "type": "node",
      "id": 2803622914,
      "lat": 38.7055343,
      "lon": -9.2078948
    },
    {
      "type": "node",
      "id": 5087468928,
      "lat": 38.7042313,
      "lon": -9.2089784
    },
    {
      "type": "node",
      "id": 5087468929,
      "lat": 38.7041507,
      "lon": -9.2088336
    },
    {
      "type": "node",
      "id": 5087468930,
      "lat": 38.7041193,
      "lon": -9.2086914
    },
    {
      "type": "node",
      "id": 5087468931,
      "lat": 38.7041088,
      "lon": -9.2085654
    },
    {
      "type": "node",
      "id": 5087468932,
      "lat": 38.7043004,
      "lon": -9.2074294
    },
    {
      "type": "node",
      "id": 5087468933,
      "lat": 38.7043579,
      "lon": -9.2073731
    },
    {
      "type": "node",
      "id": 5087468934,
      "lat": 38.7044239,
      "lon": -9.207345
    },
    {
      "type": "node",
      "id": 5087468935,
      "lat": 38.7044856,
      "lon": -9.207345
    },
    {
      "type": "node",
      "id": 2523193865,
      "lat": 38.6955691,
      "lon": -9.1945678
    },
    {
      "type": "node",
      "id": 4439533153,
      "lat": 38.6956565,
      "lon": -9.1944343
    },
    {
      "type": "node",
      "id": 4439533155,
      "lat": 38.6956814,
      "lon": -9.1943653
    },
    {
      "type": "node",
      "id": 4439533156,
      "lat": 38.6957178,
      "lon": -9.193632
    },
    {
      "type": "node",
      "id": 4439533157,
      "lat": 38.6957385,
      "lon": -9.1933123
    },
    {
      "type": "node",
      "id": 4959867479,
      "lat": 38.6957326,
      "lon": -9.1933668
    },
    {
      "type": "node",
      "id": 5079244536,
      "lat": 38.6956055,
      "lon": -9.1945661
    },
    {
      "type": "node",
      "id": 5079244553,
      "lat": 38.6957395,
      "lon": -9.193638
    },
    {
      "type": "node",
      "id": 5079413470,
      "lat": 38.695719,
      "lon": -9.1943137
    },
    {
      "type": "node",
      "id": 1514403443,
      "lat": 38.6976039,
      "lon": -9.1925721
    },
    {
      "type": "node",
      "id": 1514403449,
      "lat": 38.6979871,
      "lon": -9.1901445
    },
    {
      "type": "node",
      "id": 1514403454,
      "lat": 38.6970023,
      "lon": -9.1924112
    },
    {
      "type": "node",
      "id": 1514403457,
      "lat": 38.6980392,
      "lon": -9.18831
    },
    {
      "type": "node",
      "id": 1514445092,
      "lat": 38.6978764,
      "lon": -9.1901146
    },
    {
      "type": "node",
      "id": 2491772523,
      "lat": 38.6975475,
      "lon": -9.1900141
    },
    {
      "type": "node",
      "id": 2491772524,
      "lat": 38.697212,
      "lon": -9.1921234
    },
    {
      "type": "node",
      "id": 2491772525,
      "lat": 38.6974986,
      "lon": -9.1903565
    },
    {
      "type": "node",
      "id": 2491772526,
      "lat": 38.6978343,
      "lon": -9.1882538
    },
    {
      "type": "node",
      "id": 2491772527,
      "lat": 38.6979045,
      "lon": -9.1882726
    },
    {
      "type": "node",
      "id": 2491772528,
      "lat": 38.6976177,
      "lon": -9.1900329
    },
    {
      "type": "node",
      "id": 2491772529,
      "lat": 38.6975651,
      "lon": -9.1903742
    },
    {
      "type": "node",
      "id": 2491772530,
      "lat": 38.6972785,
      "lon": -9.1921411
    },
    {
      "type": "node",
      "id": 2523193902,
      "lat": 38.6959272,
      "lon": -9.192939
    },
    {
      "type": "node",
      "id": 2523193938,
      "lat": 38.6958041,
      "lon": -9.1942666
    },
    {
      "type": "node",
      "id": 4253711038,
      "lat": 38.6978205,
      "lon": -9.1904445
    },
    {
      "type": "node",
      "id": 4253711039,
      "lat": 38.6978304,
      "lon": -9.1895145
    },
    {
      "type": "node",
      "id": 4253711040,
      "lat": 38.697834,
      "lon": -9.1899896
    },
    {
      "type": "node",
      "id": 4253711041,
      "lat": 38.6978943,
      "lon": -9.190006
    },
    {
      "type": "node",
      "id": 4253711042,
      "lat": 38.6979092,
      "lon": -9.1895359
    },
    {
      "type": "node",
      "id": 4253711043,
      "lat": 38.6979375,
      "lon": -9.1888678
    },
    {
      "type": "node",
      "id": 4253711044,
      "lat": 38.697945,
      "lon": -9.1904778
    },
    {
      "type": "node",
      "id": 4253711045,
      "lat": 38.6979476,
      "lon": -9.1893051
    },
    {
      "type": "node",
      "id": 4253711046,
      "lat": 38.6979781,
      "lon": -9.1891211
    },
    {
      "type": "node",
      "id": 4253711047,
      "lat": 38.6980069,
      "lon": -9.1893213
    },
    {
      "type": "node",
      "id": 4253711048,
      "lat": 38.6980076,
      "lon": -9.1888869
    },
    {
      "type": "node",
      "id": 4253711049,
      "lat": 38.6980372,
      "lon": -9.1891372
    },
    {
      "type": "node",
      "id": 4253711052,
      "lat": 38.6980939,
      "lon": -9.1883662
    },
    {
      "type": "node",
      "id": 4253711054,
      "lat": 38.6981611,
      "lon": -9.1883845
    },
    {
      "type": "node",
      "id": 4253711055,
      "lat": 38.6981677,
      "lon": -9.1883442
    },
    {
      "type": "node",
      "id": 4253711057,
      "lat": 38.6982784,
      "lon": -9.1883741
    },
    {
      "type": "node",
      "id": 4439533159,
      "lat": 38.6957652,
      "lon": -9.1942799
    },
    {
      "type": "node",
      "id": 4439533160,
      "lat": 38.6958711,
      "lon": -9.19427
    },
    {
      "type": "node",
      "id": 4439533161,
      "lat": 38.6957596,
      "lon": -9.193222
    },
    {
      "type": "node",
      "id": 4439533163,
      "lat": 38.695897,
      "lon": -9.1942803
    },
    {
      "type": "node",
      "id": 4439533164,
      "lat": 38.6958727,
      "lon": -9.1930401
    },
    {
      "type": "node",
      "id": 4439533166,
      "lat": 38.6959811,
      "lon": -9.1943673
    },
    {
      "type": "node",
      "id": 4439533167,
      "lat": 38.6960657,
      "lon": -9.1945236
    },
    {
      "type": "node",
      "id": 4439533169,
      "lat": 38.6959654,
      "lon": -9.1928629
    },
    {
      "type": "node",
      "id": 4439533170,
      "lat": 38.6962079,
      "lon": -9.1944385
    },
    {
      "type": "node",
      "id": 4439533171,
      "lat": 38.6961204,
      "lon": -9.1925038
    },
    {
      "type": "node",
      "id": 4439533173,
      "lat": 38.6961745,
      "lon": -9.1928465
    },
    {
      "type": "node",
      "id": 4439533174,
      "lat": 38.6962504,
      "lon": -9.1938646
    },
    {
      "type": "node",
      "id": 4439533176,
      "lat": 38.6962557,
      "lon": -9.1932614
    },
    {
      "type": "node",
      "id": 4439533177,
      "lat": 38.6962663,
      "lon": -9.1935436
    },
    {
      "type": "node",
      "id": 4959867478,
      "lat": 38.6958268,
      "lon": -9.1930876
    },
    {
      "type": "node",
      "id": 5079242096,
      "lat": 38.6960988,
      "lon": -9.1924982
    },
    {
      "type": "node",
      "id": 5079244521,
      "lat": 38.6960854,
      "lon": -9.1924947
    },
    {
      "type": "node",
      "id": 5079244554,
      "lat": 38.6959399,
      "lon": -9.1929458
    },
    {
      "type": "node",
      "id": 5079244555,
      "lat": 38.6962398,
      "lon": -9.1931233
    },
    {
      "type": "node",
      "id": 5079244562,
      "lat": 38.696217,
      "lon": -9.1929914
    },
    {
      "type": "node",
      "id": 5079244563,
      "lat": 38.6961389,
      "lon": -9.1926935
    },
    {
      "type": "node",
      "id": 5079244564,
      "lat": 38.6960291,
      "lon": -9.19248
    },
    {
      "type": "node",
      "id": 5079413471,
      "lat": 38.695946,
      "lon": -9.1943173
    },
    {
      "type": "node",
      "id": 5079413472,
      "lat": 38.6958383,
      "lon": -9.1942643
    },
    {
      "type": "node",
      "id": 310164144,
      "lat": 38.708218,
      "lon": -9.1976423
    },
    {
      "type": "node",
      "id": 310164145,
      "lat": 38.7082129,
      "lon": -9.1978612
    },
    {
      "type": "node",
      "id": 310164146,
      "lat": 38.7081779,
      "lon": -9.1978599
    },
    {
      "type": "node",
      "id": 310164147,
      "lat": 38.7081567,
      "lon": -9.1987765
    },
    {
      "type": "node",
      "id": 310164148,
      "lat": 38.7080407,
      "lon": -9.1987721
    },
    {
      "type": "node",
      "id": 310164149,
      "lat": 38.7080415,
      "lon": -9.1987358
    },
    {
      "type": "node",
      "id": 310164150,
      "lat": 38.7072374,
      "lon": -9.1987053
    },
    {
      "type": "node",
      "id": 310164151,
      "lat": 38.7072339,
      "lon": -9.1988594
    },
    {
      "type": "node",
      "id": 310164152,
      "lat": 38.707076,
      "lon": -9.1988534
    },
    {
      "type": "node",
      "id": 310164153,
      "lat": 38.7070997,
      "lon": -9.1978274
    },
    {
      "type": "node",
      "id": 310164154,
      "lat": 38.707054,
      "lon": -9.1978257
    },
    {
      "type": "node",
      "id": 310164157,
      "lat": 38.7070593,
      "lon": -9.1975983
    },
    {
      "type": "node",
      "id": 4061377126,
      "lat": 38.707448,
      "lon": -9.1986864
    },
    {
      "type": "node",
      "id": 4061377127,
      "lat": 38.7074633,
      "lon": -9.1980904
    },
    {
      "type": "node",
      "id": 4061377128,
      "lat": 38.7078085,
      "lon": -9.1987016
    },
    {
      "type": "node",
      "id": 4061377129,
      "lat": 38.7078237,
      "lon": -9.1981056
    },
    {
      "type": "node",
      "id": 4061791999,
      "lat": 38.7081448,
      "lon": -9.1976395
    },
    {
      "type": "node",
      "id": 4061808325,
      "lat": 38.7070592,
      "lon": -9.1976011
    },
    {
      "type": "node",
      "id": 5643295296,
      "lat": 38.7076047,
      "lon": -9.1987192
    },
    {
      "type": "node",
      "id": 5643295297,
      "lat": 38.7076054,
      "lon": -9.198693
    },
    {
      "type": "node",
      "id": 5643295298,
      "lat": 38.7076198,
      "lon": -9.198097
    },
    {
      "type": "node",
      "id": 5643295299,
      "lat": 38.7076318,
      "lon": -9.19762
    },
    {
      "type": "node",
      "id": 1514403445,
      "lat": 38.6980918,
      "lon": -9.1879874
    },
    {
      "type": "node",
      "id": 1796261161,
      "lat": 38.6977384,
      "lon": -9.1878929
    },
    {
      "type": "node",
      "id": 4253711051,
      "lat": 38.698066,
      "lon": -9.1881455
    },
    {
      "type": "node",
      "id": 2001836088,
      "lat": 38.7017066,
      "lon": -9.1803722
    },
    {
      "type": "node",
      "id": 2001836090,
      "lat": 38.7022538,
      "lon": -9.180529
    },
    {
      "type": "node",
      "id": 2001836092,
      "lat": 38.7020019,
      "lon": -9.1800979
    },
    {
      "type": "node",
      "id": 2001836094,
      "lat": 38.7021365,
      "lon": -9.1803287
    },
    {
      "type": "node",
      "id": 2001836096,
      "lat": 38.7021871,
      "lon": -9.1805909
    },
    {
      "type": "node",
      "id": 2001836098,
      "lat": 38.7020725,
      "lon": -9.1803882
    },
    {
      "type": "node",
      "id": 2001836100,
      "lat": 38.7019761,
      "lon": -9.1808665
    },
    {
      "type": "node",
      "id": 2001836102,
      "lat": 38.7022833,
      "lon": -9.1805812
    },
    {
      "type": "node",
      "id": 2483777474,
      "lat": 38.7009271,
      "lon": -9.1804572
    },
    {
      "type": "node",
      "id": 2483777478,
      "lat": 38.7008386,
      "lon": -9.1802965
    },
    {
      "type": "node",
      "id": 2483777490,
      "lat": 38.7014357,
      "lon": -9.1799968
    },
    {
      "type": "node",
      "id": 4380981575,
      "lat": 38.7006945,
      "lon": -9.1800352
    },
    {
      "type": "node",
      "id": 4380981579,
      "lat": 38.7008371,
      "lon": -9.1799061
    },
    {
      "type": "node",
      "id": 4380981580,
      "lat": 38.7008999,
      "lon": -9.1795786
    },
    {
      "type": "node",
      "id": 4380981583,
      "lat": 38.7009002,
      "lon": -9.1800205
    },
    {
      "type": "node",
      "id": 4380981586,
      "lat": 38.7009924,
      "lon": -9.1793518
    },
    {
      "type": "node",
      "id": 4380981587,
      "lat": 38.701596,
      "lon": -9.1797683
    },
    {
      "type": "node",
      "id": 4380983189,
      "lat": 38.701045,
      "lon": -9.1794473
    },
    {
      "type": "node",
      "id": 4380983196,
      "lat": 38.7012673,
      "lon": -9.179103
    },
    {
      "type": "node",
      "id": 4380983197,
      "lat": 38.7014304,
      "lon": -9.1793989
    },
    {
      "type": "node",
      "id": 4380983198,
      "lat": 38.7014911,
      "lon": -9.1793439
    },
    {
      "type": "node",
      "id": 4380983199,
      "lat": 38.7015124,
      "lon": -9.1801358
    },
    {
      "type": "node",
      "id": 4380983203,
      "lat": 38.7018033,
      "lon": -9.1795721
    },
    {
      "type": "node",
      "id": 4380983204,
      "lat": 38.7017828,
      "lon": -9.180507
    },
    {
      "type": "node",
      "id": 4380983205,
      "lat": 38.7017894,
      "lon": -9.1798851
    },
    {
      "type": "node",
      "id": 4380983206,
      "lat": 38.7017972,
      "lon": -9.1805501
    },
    {
      "type": "node",
      "id": 4380983208,
      "lat": 38.7019026,
      "lon": -9.1803957
    },
    {
      "type": "node",
      "id": 4380983209,
      "lat": 38.7019235,
      "lon": -9.1804328
    },
    {
      "type": "node",
      "id": 4380983210,
      "lat": 38.7019744,
      "lon": -9.1792167
    },
    {
      "type": "node",
      "id": 4380983211,
      "lat": 38.7019643,
      "lon": -9.1803401
    },
    {
      "type": "node",
      "id": 4380983212,
      "lat": 38.7019874,
      "lon": -9.1803809
    },
    {
      "type": "node",
      "id": 4380983213,
      "lat": 38.7020788,
      "lon": -9.1802338
    },
    {
      "type": "node",
      "id": 4380983214,
      "lat": 38.7021046,
      "lon": -9.1802721
    },
    {
      "type": "node",
      "id": 4380983215,
      "lat": 38.7021714,
      "lon": -9.179863
    },
    {
      "type": "node",
      "id": 4779924720,
      "lat": 38.7021138,
      "lon": -9.1795675
    },
    {
      "type": "node",
      "id": 4779924821,
      "lat": 38.7020266,
      "lon": -9.1797486
    },
    {
      "type": "node",
      "id": 4779924822,
      "lat": 38.702293,
      "lon": -9.1799831
    },
    {
      "type": "node",
      "id": 4779924823,
      "lat": 38.7022579,
      "lon": -9.1796834
    },
    {
      "type": "node",
      "id": 4779924877,
      "lat": 38.7013756,
      "lon": -9.1795778
    },
    {
      "type": "node",
      "id": 4779924878,
      "lat": 38.7013162,
      "lon": -9.1794701
    },
    {
      "type": "node",
      "id": 4779924879,
      "lat": 38.7014547,
      "lon": -9.1798963
    },
    {
      "type": "node",
      "id": 4779924880,
      "lat": 38.7013158,
      "lon": -9.1796443
    },
    {
      "type": "node",
      "id": 4779924881,
      "lat": 38.7014526,
      "lon": -9.1795081
    },
    {
      "type": "node",
      "id": 4779924882,
      "lat": 38.7009985,
      "lon": -9.1797576
    },
    {
      "type": "node",
      "id": 5088757636,
      "lat": 38.7022342,
      "lon": -9.1797327
    },
    {
      "type": "node",
      "id": 5088757637,
      "lat": 38.7022339,
      "lon": -9.1797324
    },
    {
      "type": "node",
      "id": 5088757656,
      "lat": 38.7006428,
      "lon": -9.180379
    },
    {
      "type": "node",
      "id": 5088757663,
      "lat": 38.7006057,
      "lon": -9.1804126
    },
    {
      "type": "node",
      "id": 5088757664,
      "lat": 38.7007217,
      "lon": -9.1803076
    },
    {
      "type": "node",
      "id": 5088757665,
      "lat": 38.7006816,
      "lon": -9.1802349
    },
    {
      "type": "node",
      "id": 5088757666,
      "lat": 38.7006871,
      "lon": -9.1801193
    },
    {
      "type": "node",
      "id": 5088757667,
      "lat": 38.7006406,
      "lon": -9.1804758
    },
    {
      "type": "node",
      "id": 5088757668,
      "lat": 38.7006586,
      "lon": -9.1800677
    },
    {
      "type": "node",
      "id": 5088757670,
      "lat": 38.7014194,
      "lon": -9.1793767
    },
    {
      "type": "node",
      "id": 5088757671,
      "lat": 38.7011397,
      "lon": -9.1796298
    },
    {
      "type": "node",
      "id": 4380983217,
      "lat": 38.7023387,
      "lon": -9.180061
    },
    {
      "type": "node",
      "id": 4380983218,
      "lat": 38.7023425,
      "lon": -9.1795075
    },
    {
      "type": "node",
      "id": 4380983219,
      "lat": 38.7024089,
      "lon": -9.1798507
    },
    {
      "type": "node",
      "id": 4380983221,
      "lat": 38.7024559,
      "lon": -9.1799143
    },
    {
      "type": "node",
      "id": 5088757635,
      "lat": 38.7023963,
      "lon": -9.1798367
    },
    {
      "type": "node",
      "id": 5088757638,
      "lat": 38.7025329,
      "lon": -9.1796606
    },
    {
      "type": "node",
      "id": 1141979263,
      "lat": 38.7031575,
      "lon": -9.1698961
    },
    {
      "type": "node",
      "id": 1141979290,
      "lat": 38.7029754,
      "lon": -9.1698183
    },
    {
      "type": "node",
      "id": 1141979411,
      "lat": 38.7031261,
      "lon": -9.1698639
    },
    {
      "type": "node",
      "id": 1141979412,
      "lat": 38.7029,
      "lon": -9.1713202
    },
    {
      "type": "node",
      "id": 1141979427,
      "lat": 38.7031219,
      "lon": -9.169888
    },
    {
      "type": "node",
      "id": 1141979491,
      "lat": 38.7029691,
      "lon": -9.1698451
    },
    {
      "type": "node",
      "id": 1141979527,
      "lat": 38.7026635,
      "lon": -9.1712558
    },
    {
      "type": "node",
      "id": 1141979548,
      "lat": 38.7029335,
      "lon": -9.1698371
    },
    {
      "type": "node",
      "id": 1138924556,
      "lat": 38.7042885,
      "lon": -9.1620417
    },
    {
      "type": "node",
      "id": 1141369825,
      "lat": 38.7043822,
      "lon": -9.1621488
    },
    {
      "type": "node",
      "id": 1141369897,
      "lat": 38.70459,
      "lon": -9.1622994
    },
    {
      "type": "node",
      "id": 1141369903,
      "lat": 38.7043954,
      "lon": -9.1621191
    },
    {
      "type": "node",
      "id": 1141369967,
      "lat": 38.7047442,
      "lon": -9.1619502
    },
    {
      "type": "node",
      "id": 1141067981,
      "lat": 38.7050695,
      "lon": -9.1602154
    },
    {
      "type": "node",
      "id": 1141369766,
      "lat": 38.7047534,
      "lon": -9.1616635
    },
    {
      "type": "node",
      "id": 1141369775,
      "lat": 38.7047802,
      "lon": -9.1616952
    },
    {
      "type": "node",
      "id": 1141369778,
      "lat": 38.7048258,
      "lon": -9.1612197
    },
    {
      "type": "node",
      "id": 1141369802,
      "lat": 38.7049479,
      "lon": -9.1609432
    },
    {
      "type": "node",
      "id": 1141369806,
      "lat": 38.7048344,
      "lon": -9.1612259
    },
    {
      "type": "node",
      "id": 1141369812,
      "lat": 38.7047658,
      "lon": -9.1617278
    },
    {
      "type": "node",
      "id": 1141369819,
      "lat": 38.7051963,
      "lon": -9.160685
    },
    {
      "type": "node",
      "id": 1141369831,
      "lat": 38.7047349,
      "lon": -9.1617054
    },
    {
      "type": "node",
      "id": 1141369891,
      "lat": 38.7046904,
      "lon": -9.161552
    },
    {
      "type": "node",
      "id": 1141369910,
      "lat": 38.7045078,
      "lon": -9.161545
    },
    {
      "type": "node",
      "id": 1141369913,
      "lat": 38.7053032,
      "lon": -9.1606839
    },
    {
      "type": "node",
      "id": 1141369919,
      "lat": 38.7049622,
      "lon": -9.1609536
    },
    {
      "type": "node",
      "id": 1141369963,
      "lat": 38.7052226,
      "lon": -9.1606254
    },
    {
      "type": "node",
      "id": 1141369970,
      "lat": 38.7051088,
      "lon": -9.1606216
    },
    {
      "type": "node",
      "id": 1141369975,
      "lat": 38.7046107,
      "lon": -9.16156
    },
    {
      "type": "node",
      "id": 1141369986,
      "lat": 38.7047639,
      "lon": -9.1616834
    },
    {
      "type": "node",
      "id": 1141370010,
      "lat": 38.70479,
      "lon": -9.1616242
    },
    {
      "type": "node",
      "id": 1141370017,
      "lat": 38.7045908,
      "lon": -9.1616051
    },
    {
      "type": "node",
      "id": 2508978471,
      "lat": 38.7049731,
      "lon": -9.1604457
    },
    {
      "type": "node",
      "id": 2508978473,
      "lat": 38.7052758,
      "lon": -9.1603572
    },
    {
      "type": "node",
      "id": 2508978475,
      "lat": 38.7054285,
      "lon": -9.160356
    },
    {
      "type": "node",
      "id": 2508978476,
      "lat": 38.7051794,
      "lon": -9.1605875
    },
    {
      "type": "node",
      "id": 2508978477,
      "lat": 38.7053179,
      "lon": -9.16028
    },
    {
      "type": "node",
      "id": 2508978481,
      "lat": 38.7053939,
      "lon": -9.1604384
    },
    {
      "type": "node",
      "id": 2508978483,
      "lat": 38.7052834,
      "lon": -9.1603625
    },
    {
      "type": "node",
      "id": 2508982014,
      "lat": 38.7051363,
      "lon": -9.1602614
    },
    {
      "type": "node",
      "id": 1116331894,
      "lat": 38.7087154,
      "lon": -9.1386718
    },
    {
      "type": "node",
      "id": 1116331916,
      "lat": 38.7085896,
      "lon": -9.138523
    },
    {
      "type": "node",
      "id": 1116331964,
      "lat": 38.7084517,
      "lon": -9.1389019
    },
    {
      "type": "node",
      "id": 1116332071,
      "lat": 38.708717,
      "lon": -9.1387957
    },
    {
      "type": "node",
      "id": 1116332135,
      "lat": 38.7087459,
      "lon": -9.1385446
    },
    {
      "type": "node",
      "id": 1116332162,
      "lat": 38.7086718,
      "lon": -9.1389843
    },
    {
      "type": "node",
      "id": 1116332241,
      "lat": 38.7085983,
      "lon": -9.1384865
    },
    {
      "type": "node",
      "id": 1116332276,
      "lat": 38.7085462,
      "lon": -9.138506
    },
    {
      "type": "node",
      "id": 1116332338,
      "lat": 38.708744,
      "lon": -9.138683
    },
    {
      "type": "node",
      "id": 1116376989,
      "lat": 38.7085514,
      "lon": -9.1409522
    },
    {
      "type": "node",
      "id": 1116377004,
      "lat": 38.7085423,
      "lon": -9.1410933
    },
    {
      "type": "node",
      "id": 1116377034,
      "lat": 38.7084568,
      "lon": -9.1409422
    },
    {
      "type": "node",
      "id": 1116377102,
      "lat": 38.7083586,
      "lon": -9.1410884
    },
    {
      "type": "node",
      "id": 1116377111,
      "lat": 38.7083472,
      "lon": -9.1412653
    },
    {
      "type": "node",
      "id": 1116377139,
      "lat": 38.7083686,
      "lon": -9.1409329
    },
    {
      "type": "node",
      "id": 1119269967,
      "lat": 38.7086535,
      "lon": -9.1411051
    },
    {
      "type": "node",
      "id": 3339040881,
      "lat": 38.7088137,
      "lon": -9.1412023
    },
    {
      "type": "node",
      "id": 3339040882,
      "lat": 38.7083538,
      "lon": -9.141163
    },
    {
      "type": "node",
      "id": 3339040883,
      "lat": 38.7088188,
      "lon": -9.1411226
    },
    {
      "type": "node",
      "id": 6077647573,
      "lat": 38.7105648,
      "lon": -9.1874386
    },
    {
      "type": "node",
      "id": 6077647574,
      "lat": 38.7105597,
      "lon": -9.1874535
    },
    {
      "type": "node",
      "id": 6077647575,
      "lat": 38.710552,
      "lon": -9.1874666
    },
    {
      "type": "node",
      "id": 6077647576,
      "lat": 38.7105422,
      "lon": -9.187477
    },
    {
      "type": "node",
      "id": 6077647577,
      "lat": 38.7105308,
      "lon": -9.1874842
    },
    {
      "type": "node",
      "id": 6077647578,
      "lat": 38.7105184,
      "lon": -9.1874879
    },
    {
      "type": "node",
      "id": 6077647579,
      "lat": 38.7105057,
      "lon": -9.1874878
    },
    {
      "type": "node",
      "id": 6077647580,
      "lat": 38.7104933,
      "lon": -9.187484
    },
    {
      "type": "node",
      "id": 6077647581,
      "lat": 38.710482,
      "lon": -9.1874766
    },
    {
      "type": "node",
      "id": 6077647582,
      "lat": 38.7104723,
      "lon": -9.187466
    },
    {
      "type": "node",
      "id": 6077647583,
      "lat": 38.7104647,
      "lon": -9.1874529
    },
    {
      "type": "node",
      "id": 6077647584,
      "lat": 38.7104597,
      "lon": -9.1874379
    },
    {
      "type": "node",
      "id": 6077651585,
      "lat": 38.7104576,
      "lon": -9.1874218
    },
    {
      "type": "node",
      "id": 6077651586,
      "lat": 38.7104584,
      "lon": -9.1874055
    },
    {
      "type": "node",
      "id": 6077651587,
      "lat": 38.7104621,
      "lon": -9.1873899
    },
    {
      "type": "node",
      "id": 6077651588,
      "lat": 38.7104685,
      "lon": -9.1873758
    },
    {
      "type": "node",
      "id": 6077651589,
      "lat": 38.7104773,
      "lon": -9.187364
    },
    {
      "type": "node",
      "id": 6077651590,
      "lat": 38.710488,
      "lon": -9.1873551
    },
    {
      "type": "node",
      "id": 6077651591,
      "lat": 38.7105,
      "lon": -9.1873496
    },
    {
      "type": "node",
      "id": 6077651592,
      "lat": 38.7105127,
      "lon": -9.1873478
    },
    {
      "type": "node",
      "id": 6077651593,
      "lat": 38.7105253,
      "lon": -9.1873498
    },
    {
      "type": "node",
      "id": 6077651594,
      "lat": 38.7105372,
      "lon": -9.1873555
    },
    {
      "type": "node",
      "id": 6077651595,
      "lat": 38.7105478,
      "lon": -9.1873645
    },
    {
      "type": "node",
      "id": 6077651596,
      "lat": 38.7105565,
      "lon": -9.1873764
    },
    {
      "type": "node",
      "id": 6077651597,
      "lat": 38.7105628,
      "lon": -9.1873906
    },
    {
      "type": "node",
      "id": 6077651598,
      "lat": 38.7105664,
      "lon": -9.1874063
    },
    {
      "type": "node",
      "id": 6077651599,
      "lat": 38.7105671,
      "lon": -9.1874225
    },
    {
      "type": "node",
      "id": 1183593677,
      "lat": 38.7465001,
      "lon": -9.1839841
    },
    {
      "type": "node",
      "id": 3377793317,
      "lat": 38.7464497,
      "lon": -9.1838241
    },
    {
      "type": "node",
      "id": 3377793318,
      "lat": 38.7465208,
      "lon": -9.1837872
    },
    {
      "type": "node",
      "id": 3377793319,
      "lat": 38.7465712,
      "lon": -9.1839472
    },
    {
      "type": "node",
      "id": 3144704212,
      "lat": 38.7516321,
      "lon": -9.1837175
    },
    {
      "type": "node",
      "id": 3144704217,
      "lat": 38.7516101,
      "lon": -9.1836567
    },
    {
      "type": "node",
      "id": 3144704218,
      "lat": 38.7511301,
      "lon": -9.1839375
    },
    {
      "type": "node",
      "id": 3144704220,
      "lat": 38.7514899,
      "lon": -9.1842379
    },
    {
      "type": "node",
      "id": 3144704221,
      "lat": 38.7515275,
      "lon": -9.1841199
    },
    {
      "type": "node",
      "id": 3144704222,
      "lat": 38.7516028,
      "lon": -9.1839321
    },
    {
      "type": "node",
      "id": 3144704223,
      "lat": 38.751699,
      "lon": -9.1837765
    },
    {
      "type": "node",
      "id": 3144704224,
      "lat": 38.7518038,
      "lon": -9.1836145
    },
    {
      "type": "node",
      "id": 3144704225,
      "lat": 38.7512807,
      "lon": -9.1843559
    },
    {
      "type": "node",
      "id": 3144704226,
      "lat": 38.7513476,
      "lon": -9.1844189
    },
    {
      "type": "node",
      "id": 3144704227,
      "lat": 38.7513978,
      "lon": -9.1844256
    },
    {
      "type": "node",
      "id": 3144704228,
      "lat": 38.7514439,
      "lon": -9.1844042
    },
    {
      "type": "node",
      "id": 4176074089,
      "lat": 38.751469,
      "lon": -9.1843505
    },
    {
      "type": "node",
      "id": 1867832236,
      "lat": 38.7153903,
      "lon": -9.1547377
    },
    {
      "type": "node",
      "id": 2774839229,
      "lat": 38.7113923,
      "lon": -9.1503537
    },
    {
      "type": "node",
      "id": 2774839230,
      "lat": 38.7111914,
      "lon": -9.1503231
    },
    {
      "type": "node",
      "id": 2774839232,
      "lat": 38.7111762,
      "lon": -9.1504871
    },
    {
      "type": "node",
      "id": 2774839233,
      "lat": 38.7113035,
      "lon": -9.1505065
    },
    {
      "type": "node",
      "id": 2774839234,
      "lat": 38.7112982,
      "lon": -9.150564
    },
    {
      "type": "node",
      "id": 2774839235,
      "lat": 38.7113717,
      "lon": -9.1505752
    },
    {
      "type": "node",
      "id": 4693994934,
      "lat": 38.7154014,
      "lon": -9.1547118
    },
    {
      "type": "node",
      "id": 4698054893,
      "lat": 38.7113771,
      "lon": -9.1505177
    },
    {
      "type": "node",
      "id": 5088757625,
      "lat": 38.7153174,
      "lon": -9.1546861
    },
    {
      "type": "node",
      "id": 498566731,
      "lat": 38.7210366,
      "lon": -9.1556529
    },
    {
      "type": "node",
      "id": 1106335208,
      "lat": 38.7211096,
      "lon": -9.1555698
    },
    {
      "type": "node",
      "id": 1106335473,
      "lat": 38.7211487,
      "lon": -9.1554186
    },
    {
      "type": "node",
      "id": 1106336142,
      "lat": 38.7211893,
      "lon": -9.1554773
    },
    {
      "type": "node",
      "id": 1106336358,
      "lat": 38.7212651,
      "lon": -9.155391
    },
    {
      "type": "node",
      "id": 1106336428,
      "lat": 38.7213797,
      "lon": -9.155853
    },
    {
      "type": "node",
      "id": 1106336560,
      "lat": 38.7212654,
      "lon": -9.1559831
    },
    {
      "type": "node",
      "id": 1106336638,
      "lat": 38.7214946,
      "lon": -9.1557222
    },
    {
      "type": "node",
      "id": 1106337210,
      "lat": 38.7210683,
      "lon": -9.1555101
    },
    {
      "type": "node",
      "id": 5757011621,
      "lat": 38.7211071,
      "lon": -9.1554659
    },
    {
      "type": "node",
      "id": 5757011625,
      "lat": 38.7213799,
      "lon": -9.1555566
    },
    {
      "type": "node",
      "id": 5757011649,
      "lat": 38.721151,
      "lon": -9.155818
    },
    {
      "type": "node",
      "id": 1124179566,
      "lat": 38.7174925,
      "lon": -9.1503613
    },
    {
      "type": "node",
      "id": 1124179573,
      "lat": 38.7177355,
      "lon": -9.1512506
    },
    {
      "type": "node",
      "id": 1124179594,
      "lat": 38.7181046,
      "lon": -9.1502825
    },
    {
      "type": "node",
      "id": 1124179600,
      "lat": 38.7183899,
      "lon": -9.1499847
    },
    {
      "type": "node",
      "id": 1124179643,
      "lat": 38.7182543,
      "lon": -9.1508344
    },
    {
      "type": "node",
      "id": 1124179662,
      "lat": 38.7178658,
      "lon": -9.1503787
    },
    {
      "type": "node",
      "id": 1124179799,
      "lat": 38.7186208,
      "lon": -9.1508653
    },
    {
      "type": "node",
      "id": 1124179872,
      "lat": 38.7180162,
      "lon": -9.1509361
    },
    {
      "type": "node",
      "id": 1131598224,
      "lat": 38.7212033,
      "lon": -9.1494389
    },
    {
      "type": "node",
      "id": 1131598226,
      "lat": 38.7209721,
      "lon": -9.1494781
    },
    {
      "type": "node",
      "id": 1131598247,
      "lat": 38.721113,
      "lon": -9.1492116
    },
    {
      "type": "node",
      "id": 1131598253,
      "lat": 38.7210533,
      "lon": -9.1493247
    },
    {
      "type": "node",
      "id": 1131598258,
      "lat": 38.7211608,
      "lon": -9.1491712
    },
    {
      "type": "node",
      "id": 1131598261,
      "lat": 38.7209118,
      "lon": -9.1495923
    },
    {
      "type": "node",
      "id": 1131598263,
      "lat": 38.7209902,
      "lon": -9.1494938
    },
    {
      "type": "node",
      "id": 1131598268,
      "lat": 38.7208528,
      "lon": -9.1495411
    },
    {
      "type": "node",
      "id": 1131598271,
      "lat": 38.7210714,
      "lon": -9.1493404
    },
    {
      "type": "node",
      "id": 1131598275,
      "lat": 38.7210541,
      "lon": -9.1491605
    },
    {
      "type": "node",
      "id": 1131598288,
      "lat": 38.7209003,
      "lon": -9.149664
    },
    {
      "type": "node",
      "id": 1131598290,
      "lat": 38.7212869,
      "lon": -9.1492807
    },
    {
      "type": "node",
      "id": 1135566831,
      "lat": 38.7211346,
      "lon": -9.1495689
    },
    {
      "type": "node",
      "id": 1135566858,
      "lat": 38.7212092,
      "lon": -9.149444
    },
    {
      "type": "node",
      "id": 1867832237,
      "lat": 38.7154101,
      "lon": -9.1544707
    },
    {
      "type": "node",
      "id": 1867832238,
      "lat": 38.715483,
      "lon": -9.1545223
    },
    {
      "type": "node",
      "id": 5090471919,
      "lat": 38.7183622,
      "lon": -9.1509779
    },
    {
      "type": "node",
      "id": 5090471920,
      "lat": 38.7181357,
      "lon": -9.1500914
    },
    {
      "type": "node",
      "id": 5090472725,
      "lat": 38.7176173,
      "lon": -9.1508181
    },
    {
      "type": "node",
      "id": 5544020947,
      "lat": 38.7211405,
      "lon": -9.149574
    },
    {
      "type": "node",
      "id": 5544020948,
      "lat": 38.7210264,
      "lon": -9.1497736
    },
    {
      "type": "node",
      "id": 1106336423,
      "lat": 38.7134137,
      "lon": -9.1432745
    },
    {
      "type": "node",
      "id": 1106336454,
      "lat": 38.7138231,
      "lon": -9.1435913
    },
    {
      "type": "node",
      "id": 1106336941,
      "lat": 38.7138362,
      "lon": -9.1433063
    },
    {
      "type": "node",
      "id": 1116160461,
      "lat": 38.7134782,
      "lon": -9.1432793
    },
    {
      "type": "node",
      "id": 1116215133,
      "lat": 38.7136194,
      "lon": -9.1435735
    },
    {
      "type": "node",
      "id": 1116215554,
      "lat": 38.7136149,
      "lon": -9.1436799
    },
    {
      "type": "node",
      "id": 1117958730,
      "lat": 38.7137839,
      "lon": -9.1435879
    },
    {
      "type": "node",
      "id": 2501840738,
      "lat": 38.7102033,
      "lon": -9.1470826
    },
    {
      "type": "node",
      "id": 2501840740,
      "lat": 38.7102712,
      "lon": -9.1474336
    },
    {
      "type": "node",
      "id": 2501840742,
      "lat": 38.7100721,
      "lon": -9.1474969
    },
    {
      "type": "node",
      "id": 2501840743,
      "lat": 38.7100042,
      "lon": -9.1471458
    },
    {
      "type": "node",
      "id": 5090471914,
      "lat": 38.7133988,
      "lon": -9.1435404
    },
    {
      "type": "node",
      "id": 1116331932,
      "lat": 38.7092124,
      "lon": -9.13704
    },
    {
      "type": "node",
      "id": 1116332060,
      "lat": 38.709369,
      "lon": -9.1363817
    },
    {
      "type": "node",
      "id": 1116332192,
      "lat": 38.7090795,
      "lon": -9.1362685
    },
    {
      "type": "node",
      "id": 1116332271,
      "lat": 38.7089229,
      "lon": -9.1369268
    },
    {
      "type": "node",
      "id": 1116377067,
      "lat": 38.7088787,
      "lon": -9.1412092
    },
    {
      "type": "node",
      "id": 1124109376,
      "lat": 38.7091188,
      "lon": -9.1368006
    },
    {
      "type": "node",
      "id": 1124109533,
      "lat": 38.7091415,
      "lon": -9.1367079
    },
    {
      "type": "node",
      "id": 1124109570,
      "lat": 38.7091039,
      "lon": -9.1366928
    },
    {
      "type": "node",
      "id": 1124109661,
      "lat": 38.7090812,
      "lon": -9.1367854
    },
    {
      "type": "node",
      "id": 3339040884,
      "lat": 38.7088715,
      "lon": -9.1413208
    },
    {
      "type": "node",
      "id": 3661228130,
      "lat": 38.7090662,
      "lon": -9.1369828
    },
    {
      "type": "node",
      "id": 1114863813,
      "lat": 38.7159269,
      "lon": -9.1426072
    },
    {
      "type": "node",
      "id": 1114863822,
      "lat": 38.7154218,
      "lon": -9.142319
    },
    {
      "type": "node",
      "id": 1114863827,
      "lat": 38.7156318,
      "lon": -9.1423524
    },
    {
      "type": "node",
      "id": 1114863853,
      "lat": 38.7155815,
      "lon": -9.1424409
    },
    {
      "type": "node",
      "id": 1114863895,
      "lat": 38.7159219,
      "lon": -9.1429869
    },
    {
      "type": "node",
      "id": 1114863900,
      "lat": 38.715705,
      "lon": -9.1424677
    },
    {
      "type": "node",
      "id": 1114863913,
      "lat": 38.7158411,
      "lon": -9.1425321
    },
    {
      "type": "node",
      "id": 1114863942,
      "lat": 38.715818,
      "lon": -9.1425723
    },
    {
      "type": "node",
      "id": 1114863947,
      "lat": 38.7154394,
      "lon": -9.1422825
    },
    {
      "type": "node",
      "id": 1114863961,
      "lat": 38.7157887,
      "lon": -9.1428726
    },
    {
      "type": "node",
      "id": 1114863967,
      "lat": 38.7157301,
      "lon": -9.1424275
    },
    {
      "type": "node",
      "id": 1114863993,
      "lat": 38.7161023,
      "lon": -9.1426431
    },
    {
      "type": "node",
      "id": 1114863927,
      "lat": 38.7155551,
      "lon": -9.142039
    },
    {
      "type": "node",
      "id": 1116381942,
      "lat": 38.7102217,
      "lon": -9.132506
    },
    {
      "type": "node",
      "id": 1116382000,
      "lat": 38.7103284,
      "lon": -9.1322431
    },
    {
      "type": "node",
      "id": 1116382030,
      "lat": 38.7103096,
      "lon": -9.1325221
    },
    {
      "type": "node",
      "id": 1116382070,
      "lat": 38.7102259,
      "lon": -9.1322512
    },
    {
      "type": "node",
      "id": 1118889232,
      "lat": 38.7102836,
      "lon": -9.1325173
    },
    {
      "type": "node",
      "id": 1119200877,
      "lat": 38.7090316,
      "lon": -9.1327926
    },
    {
      "type": "node",
      "id": 1119200992,
      "lat": 38.7092242,
      "lon": -9.1327356
    },
    {
      "type": "node",
      "id": 1119201019,
      "lat": 38.7091191,
      "lon": -9.1325472
    },
    {
      "type": "node",
      "id": 1119201027,
      "lat": 38.709001,
      "lon": -9.1325821
    },
    {
      "type": "node",
      "id": 1119201165,
      "lat": 38.7091868,
      "lon": -9.1325273
    },
    {
      "type": "node",
      "id": 1119241507,
      "lat": 38.710316,
      "lon": -9.1324272
    },
    {
      "type": "node",
      "id": 1119241631,
      "lat": 38.7104854,
      "lon": -9.1326562
    },
    {
      "type": "node",
      "id": 1119241636,
      "lat": 38.7105795,
      "lon": -9.1321948
    },
    {
      "type": "node",
      "id": 1119241725,
      "lat": 38.7106926,
      "lon": -9.1325623
    },
    {
      "type": "node",
      "id": 1119241804,
      "lat": 38.7104833,
      "lon": -9.132565
    },
    {
      "type": "node",
      "id": 1119241844,
      "lat": 38.7105502,
      "lon": -9.1321948
    },
    {
      "type": "node",
      "id": 1119241858,
      "lat": 38.7105649,
      "lon": -9.1326213
    },
    {
      "type": "node",
      "id": 1137585455,
      "lat": 38.7121551,
      "lon": -9.1306188
    },
    {
      "type": "node",
      "id": 1137585484,
      "lat": 38.7121091,
      "lon": -9.1303483
    },
    {
      "type": "node",
      "id": 1140076325,
      "lat": 38.7121507,
      "lon": -9.1305209
    },
    {
      "type": "node",
      "id": 1140076361,
      "lat": 38.7120049,
      "lon": -9.130403
    },
    {
      "type": "node",
      "id": 1140076378,
      "lat": 38.7120216,
      "lon": -9.1307222
    },
    {
      "type": "node",
      "id": 1140076379,
      "lat": 38.7119062,
      "lon": -9.130717
    },
    {
      "type": "node",
      "id": 1140076440,
      "lat": 38.7118939,
      "lon": -9.130521
    },
    {
      "type": "node",
      "id": 1140076499,
      "lat": 38.71213,
      "lon": -9.1306283
    },
    {
      "type": "node",
      "id": 1140076516,
      "lat": 38.7119777,
      "lon": -9.1306417
    },
    {
      "type": "node",
      "id": 1140076531,
      "lat": 38.7120174,
      "lon": -9.1306363
    },
    {
      "type": "node",
      "id": 1140076533,
      "lat": 38.7121338,
      "lon": -9.1307205
    },
    {
      "type": "node",
      "id": 1140076536,
      "lat": 38.7119795,
      "lon": -9.1307116
    },
    {
      "type": "node",
      "id": 1801637591,
      "lat": 38.7126117,
      "lon": -9.1340031
    },
    {
      "type": "node",
      "id": 1801637592,
      "lat": 38.7126147,
      "lon": -9.1341352
    },
    {
      "type": "node",
      "id": 1801637593,
      "lat": 38.7127897,
      "lon": -9.1338563
    },
    {
      "type": "node",
      "id": 1801637594,
      "lat": 38.7127929,
      "lon": -9.1339962
    },
    {
      "type": "node",
      "id": 1801637597,
      "lat": 38.7132607,
      "lon": -9.1338385
    },
    {
      "type": "node",
      "id": 1801637598,
      "lat": 38.7132628,
      "lon": -9.1339303
    },
    {
      "type": "node",
      "id": 1801637599,
      "lat": 38.7132769,
      "lon": -9.1340989
    },
    {
      "type": "node",
      "id": 1801637600,
      "lat": 38.7132772,
      "lon": -9.1341102
    },
    {
      "type": "node",
      "id": 1801637601,
      "lat": 38.7134085,
      "lon": -9.1339249
    },
    {
      "type": "node",
      "id": 1801637602,
      "lat": 38.713412,
      "lon": -9.1340803
    },
    {
      "type": "node",
      "id": 1801637603,
      "lat": 38.7134123,
      "lon": -9.1340938
    },
    {
      "type": "node",
      "id": 1801637604,
      "lat": 38.7135698,
      "lon": -9.133879
    },
    {
      "type": "node",
      "id": 1801637605,
      "lat": 38.7136025,
      "lon": -9.1340051
    },
    {
      "type": "node",
      "id": 1980294283,
      "lat": 38.7121313,
      "lon": -9.1306606
    },
    {
      "type": "node",
      "id": 1980294316,
      "lat": 38.7121553,
      "lon": -9.1305722
    },
    {
      "type": "node",
      "id": 2518995629,
      "lat": 38.7128325,
      "lon": -9.134127
    },
    {
      "type": "node",
      "id": 1117990493,
      "lat": 38.7134787,
      "lon": -9.1241718
    },
    {
      "type": "node",
      "id": 1117990527,
      "lat": 38.7131119,
      "lon": -9.1244754
    },
    {
      "type": "node",
      "id": 1117990536,
      "lat": 38.7128987,
      "lon": -9.1246991
    },
    {
      "type": "node",
      "id": 1117990547,
      "lat": 38.7129809,
      "lon": -9.1241076
    },
    {
      "type": "node",
      "id": 1117990548,
      "lat": 38.7128599,
      "lon": -9.1246975
    },
    {
      "type": "node",
      "id": 1117990560,
      "lat": 38.7126799,
      "lon": -9.1245501
    },
    {
      "type": "node",
      "id": 1117990609,
      "lat": 38.7131957,
      "lon": -9.1244406
    },
    {
      "type": "node",
      "id": 1117990655,
      "lat": 38.7128534,
      "lon": -9.1248439
    },
    {
      "type": "node",
      "id": 1117990658,
      "lat": 38.7134287,
      "lon": -9.1242363
    },
    {
      "type": "node",
      "id": 1117990683,
      "lat": 38.7128785,
      "lon": -9.1248196
    },
    {
      "type": "node",
      "id": 1117990692,
      "lat": 38.7134689,
      "lon": -9.124296
    },
    {
      "type": "node",
      "id": 1117990716,
      "lat": 38.7129102,
      "lon": -9.1247888
    },
    {
      "type": "node",
      "id": 1117990740,
      "lat": 38.7127204,
      "lon": -9.1246839
    },
    {
      "type": "node",
      "id": 1117990755,
      "lat": 38.7128723,
      "lon": -9.1247247
    },
    {
      "type": "node",
      "id": 1117990772,
      "lat": 38.7125874,
      "lon": -9.1243934
    },
    {
      "type": "node",
      "id": 1117990781,
      "lat": 38.7129366,
      "lon": -9.1247633
    },
    {
      "type": "node",
      "id": 1117990813,
      "lat": 38.7131287,
      "lon": -9.1245049
    },
    {
      "type": "node",
      "id": 1117990839,
      "lat": 38.7127449,
      "lon": -9.1246602
    },
    {
      "type": "node",
      "id": 1117990843,
      "lat": 38.7131992,
      "lon": -9.1237566
    },
    {
      "type": "node",
      "id": 1117990846,
      "lat": 38.7131919,
      "lon": -9.1238854
    },
    {
      "type": "node",
      "id": 1117990850,
      "lat": 38.7135224,
      "lon": -9.1242367
    },
    {
      "type": "node",
      "id": 1117990853,
      "lat": 38.7126554,
      "lon": -9.1245738
    },
    {
      "type": "node",
      "id": 1131757442,
      "lat": 38.7109643,
      "lon": -9.1276692
    },
    {
      "type": "node",
      "id": 1131757445,
      "lat": 38.7111248,
      "lon": -9.1274758
    },
    {
      "type": "node",
      "id": 1131757448,
      "lat": 38.7112735,
      "lon": -9.1275325
    },
    {
      "type": "node",
      "id": 1131757454,
      "lat": 38.7110002,
      "lon": -9.1277113
    },
    {
      "type": "node",
      "id": 1131757467,
      "lat": 38.7111496,
      "lon": -9.1275467
    },
    {
      "type": "node",
      "id": 1131757468,
      "lat": 38.7109253,
      "lon": -9.1276235
    },
    {
      "type": "node",
      "id": 1131757477,
      "lat": 38.7112115,
      "lon": -9.1274599
    },
    {
      "type": "node",
      "id": 1131757487,
      "lat": 38.7106849,
      "lon": -9.1276861
    },
    {
      "type": "node",
      "id": 1131757492,
      "lat": 38.7108326,
      "lon": -9.1278538
    },
    {
      "type": "node",
      "id": 1131757494,
      "lat": 38.7109669,
      "lon": -9.1272908
    },
    {
      "type": "node",
      "id": 1131757497,
      "lat": 38.71098,
      "lon": -9.1279363
    },
    {
      "type": "node",
      "id": 1131757511,
      "lat": 38.7109036,
      "lon": -9.1278468
    },
    {
      "type": "node",
      "id": 1131757514,
      "lat": 38.710945,
      "lon": -9.1279854
    },
    {
      "type": "node",
      "id": 1131757517,
      "lat": 38.7111085,
      "lon": -9.1274986
    },
    {
      "type": "node",
      "id": 1131757524,
      "lat": 38.7110796,
      "lon": -9.1278043
    },
    {
      "type": "node",
      "id": 2502863440,
      "lat": 38.7126411,
      "lon": -9.1243402
    },
    {
      "type": "node",
      "id": 2502863441,
      "lat": 38.7126931,
      "lon": -9.124288
    },
    {
      "type": "node",
      "id": 2502863442,
      "lat": 38.7126933,
      "lon": -9.1242878
    },
    {
      "type": "node",
      "id": 2502863446,
      "lat": 38.7127455,
      "lon": -9.1242312
    },
    {
      "type": "node",
      "id": 2502863447,
      "lat": 38.7127578,
      "lon": -9.1242179
    },
    {
      "type": "node",
      "id": 2502863448,
      "lat": 38.7127656,
      "lon": -9.1241584
    },
    {
      "type": "node",
      "id": 2502863449,
      "lat": 38.7127857,
      "lon": -9.124189
    },
    {
      "type": "node",
      "id": 2502863456,
      "lat": 38.7128715,
      "lon": -9.1240452
    },
    {
      "type": "node",
      "id": 2502863459,
      "lat": 38.7129118,
      "lon": -9.1246453
    },
    {
      "type": "node",
      "id": 2502863463,
      "lat": 38.7129762,
      "lon": -9.1245906
    },
    {
      "type": "node",
      "id": 2502863464,
      "lat": 38.712983,
      "lon": -9.1239261
    },
    {
      "type": "node",
      "id": 2502863465,
      "lat": 38.7130042,
      "lon": -9.1239619
    },
    {
      "type": "node",
      "id": 2502863468,
      "lat": 38.7130428,
      "lon": -9.1245341
    },
    {
      "type": "node",
      "id": 2502863488,
      "lat": 38.7132207,
      "lon": -9.1237895
    },
    {
      "type": "node",
      "id": 2502863492,
      "lat": 38.7132466,
      "lon": -9.1238278
    },
    {
      "type": "node",
      "id": 2502863496,
      "lat": 38.7132977,
      "lon": -9.1240422
    },
    {
      "type": "node",
      "id": 2502863502,
      "lat": 38.7133527,
      "lon": -9.1239852
    },
    {
      "type": "node",
      "id": 2536815929,
      "lat": 38.7126868,
      "lon": -9.1246269
    },
    {
      "type": "node",
      "id": 5604009615,
      "lat": 38.7107915,
      "lon": -9.127811
    },
    {
      "type": "node",
      "id": 1122599773,
      "lat": 38.7325524,
      "lon": -9.1462415
    },
    {
      "type": "node",
      "id": 1122599862,
      "lat": 38.7324875,
      "lon": -9.1464695
    },
    {
      "type": "node",
      "id": 1122599976,
      "lat": 38.7324812,
      "lon": -9.1464105
    },
    {
      "type": "node",
      "id": 1122600139,
      "lat": 38.7326172,
      "lon": -9.1463515
    },
    {
      "type": "node",
      "id": 1122600205,
      "lat": 38.7325545,
      "lon": -9.1465125
    },
    {
      "type": "node",
      "id": 1122600240,
      "lat": 38.7325415,
      "lon": -9.1462673
    },
    {
      "type": "node",
      "id": 1122600253,
      "lat": 38.7326026,
      "lon": -9.1462764
    },
    {
      "type": "node",
      "id": 1122600345,
      "lat": 38.7325063,
      "lon": -9.1464213
    },
    {
      "type": "node",
      "id": 4714003433,
      "lat": 38.7325838,
      "lon": -9.1463274
    },
    {
      "type": "node",
      "id": 698735035,
      "lat": 38.7382976,
      "lon": -9.1534961
    },
    {
      "type": "node",
      "id": 698735036,
      "lat": 38.7372917,
      "lon": -9.1535217
    },
    {
      "type": "node",
      "id": 698735038,
      "lat": 38.7380357,
      "lon": -9.154075
    },
    {
      "type": "node",
      "id": 698735039,
      "lat": 38.7375536,
      "lon": -9.1529429
    },
    {
      "type": "node",
      "id": 1987677319,
      "lat": 38.7358815,
      "lon": -9.1536611
    },
    {
      "type": "node",
      "id": 1987677321,
      "lat": 38.7359471,
      "lon": -9.1527439
    },
    {
      "type": "node",
      "id": 1987677376,
      "lat": 38.735716,
      "lon": -9.1535585
    },
    {
      "type": "node",
      "id": 1987677400,
      "lat": 38.7357313,
      "lon": -9.1542385
    },
    {
      "type": "node",
      "id": 1987677412,
      "lat": 38.7361212,
      "lon": -9.1542507
    },
    {
      "type": "node",
      "id": 1987677438,
      "lat": 38.7373121,
      "lon": -9.1534766
    },
    {
      "type": "node",
      "id": 1987677554,
      "lat": 38.7355692,
      "lon": -9.1541003
    },
    {
      "type": "node",
      "id": 1987677580,
      "lat": 38.736004,
      "lon": -9.1545227
    },
    {
      "type": "node",
      "id": 1987677615,
      "lat": 38.7357912,
      "lon": -9.1538701
    },
    {
      "type": "node",
      "id": 1987677635,
      "lat": 38.7360063,
      "lon": -9.1537497
    },
    {
      "type": "node",
      "id": 1987677657,
      "lat": 38.7361098,
      "lon": -9.1528595
    },
    {
      "type": "node",
      "id": 1987677691,
      "lat": 38.7358573,
      "lon": -9.153917
    },
    {
      "type": "node",
      "id": 1987677695,
      "lat": 38.735806,
      "lon": -9.1540356
    },
    {
      "type": "node",
      "id": 1987677696,
      "lat": 38.7363249,
      "lon": -9.1530122
    },
    {
      "type": "node",
      "id": 1987677702,
      "lat": 38.7357887,
      "lon": -9.1531107
    },
    {
      "type": "node",
      "id": 1987677727,
      "lat": 38.7356697,
      "lon": -9.1535256
    },
    {
      "type": "node",
      "id": 1987677729,
      "lat": 38.7358348,
      "lon": -9.1531434
    },
    {
      "type": "node",
      "id": 1987677841,
      "lat": 38.7356204,
      "lon": -9.1539816
    },
    {
      "type": "node",
      "id": 1987677843,
      "lat": 38.7355537,
      "lon": -9.1539342
    },
    {
      "type": "node",
      "id": 1987677855,
      "lat": 38.737346,
      "lon": -9.1534017
    },
    {
      "type": "node",
      "id": 5586295488,
      "lat": 38.7376778,
      "lon": -9.1538076
    },
    {
      "type": "node",
      "id": 5586295490,
      "lat": 38.7376216,
      "lon": -9.153766
    },
    {
      "type": "node",
      "id": 5586295492,
      "lat": 38.7378213,
      "lon": -9.1539148
    },
    {
      "type": "node",
      "id": 5586295493,
      "lat": 38.7378701,
      "lon": -9.1539501
    },
    {
      "type": "node",
      "id": 689622126,
      "lat": 38.758117,
      "lon": -9.1577832
    },
    {
      "type": "node",
      "id": 689622128,
      "lat": 38.757431,
      "lon": -9.1574638
    },
    {
      "type": "node",
      "id": 689622130,
      "lat": 38.7575746,
      "lon": -9.1570089
    },
    {
      "type": "node",
      "id": 1302814009,
      "lat": 38.7583678,
      "lon": -9.1562422
    },
    {
      "type": "node",
      "id": 1302814011,
      "lat": 38.7587467,
      "lon": -9.1564324
    },
    {
      "type": "node",
      "id": 1302814015,
      "lat": 38.7576067,
      "lon": -9.1569058
    },
    {
      "type": "node",
      "id": 1302814030,
      "lat": 38.757862,
      "lon": -9.1559983
    },
    {
      "type": "node",
      "id": 1302814031,
      "lat": 38.7584517,
      "lon": -9.1579457
    },
    {
      "type": "node",
      "id": 1302814033,
      "lat": 38.7576621,
      "lon": -9.1567281
    },
    {
      "type": "node",
      "id": 1302814034,
      "lat": 38.7588807,
      "lon": -9.1564931
    },
    {
      "type": "node",
      "id": 1302814035,
      "lat": 38.7585428,
      "lon": -9.1563299
    },
    {
      "type": "node",
      "id": 1302814036,
      "lat": 38.7586959,
      "lon": -9.1571187
    },
    {
      "type": "node",
      "id": 2179163089,
      "lat": 38.757956,
      "lon": -9.1560435
    },
    {
      "type": "node",
      "id": 2179163141,
      "lat": 38.7581364,
      "lon": -9.1577926
    },
    {
      "type": "node",
      "id": 1158333129,
      "lat": 38.7370502,
      "lon": -9.1425819
    },
    {
      "type": "node",
      "id": 1158333323,
      "lat": 38.7368143,
      "lon": -9.1426367
    },
    {
      "type": "node",
      "id": 1158333534,
      "lat": 38.7367913,
      "lon": -9.1427815
    },
    {
      "type": "node",
      "id": 1158333937,
      "lat": 38.7368017,
      "lon": -9.142803
    },
    {
      "type": "node",
      "id": 1158333952,
      "lat": 38.7371135,
      "lon": -9.1432563
    },
    {
      "type": "node",
      "id": 1158334018,
      "lat": 38.7369817,
      "lon": -9.1426796
    },
    {
      "type": "node",
      "id": 1158334030,
      "lat": 38.7370005,
      "lon": -9.1425696
    },
    {
      "type": "node",
      "id": 1158334376,
      "lat": 38.7369444,
      "lon": -9.1432142
    },
    {
      "type": "node",
      "id": 1158334743,
      "lat": 38.7372076,
      "lon": -9.1426206
    },
    {
      "type": "node",
      "id": 1158334796,
      "lat": 38.7369084,
      "lon": -9.1432053
    },
    {
      "type": "node",
      "id": 1158334894,
      "lat": 38.7367515,
      "lon": -9.1430497
    },
    {
      "type": "node",
      "id": 1158334903,
      "lat": 38.7367641,
      "lon": -9.1429076
    },
    {
      "type": "node",
      "id": 1158334926,
      "lat": 38.7369095,
      "lon": -9.1431939
    },
    {
      "type": "node",
      "id": 1158334990,
      "lat": 38.7367913,
      "lon": -9.1428888
    },
    {
      "type": "node",
      "id": 1158335146,
      "lat": 38.7369189,
      "lon": -9.143098
    },
    {
      "type": "node",
      "id": 4571143383,
      "lat": 38.7671746,
      "lon": -9.1966971
    },
    {
      "type": "node",
      "id": 4571143384,
      "lat": 38.7671061,
      "lon": -9.1966063
    },
    {
      "type": "node",
      "id": 4571143385,
      "lat": 38.7671115,
      "lon": -9.1965996
    },
    {
      "type": "node",
      "id": 4571143386,
      "lat": 38.7673812,
      "lon": -9.196265
    },
    {
      "type": "node",
      "id": 4571143387,
      "lat": 38.7674589,
      "lon": -9.1963679
    },
    {
      "type": "node",
      "id": 4571143388,
      "lat": 38.7671838,
      "lon": -9.1967092
    },
    {
      "type": "node",
      "id": 2457974496,
      "lat": 38.7200854,
      "lon": -9.1188214
    },
    {
      "type": "node",
      "id": 3983350569,
      "lat": 38.7193609,
      "lon": -9.1191526
    },
    {
      "type": "node",
      "id": 3983350573,
      "lat": 38.7195289,
      "lon": -9.1198191
    },
    {
      "type": "node",
      "id": 3983350577,
      "lat": 38.7197261,
      "lon": -9.120506
    },
    {
      "type": "node",
      "id": 3983350609,
      "lat": 38.7205557,
      "lon": -9.1193639
    },
    {
      "type": "node",
      "id": 3983350622,
      "lat": 38.7207663,
      "lon": -9.1198615
    },
    {
      "type": "node",
      "id": 3983350625,
      "lat": 38.7208046,
      "lon": -9.1198193
    },
    {
      "type": "node",
      "id": 2460210145,
      "lat": 38.7243172,
      "lon": -9.1141768
    },
    {
      "type": "node",
      "id": 2460210159,
      "lat": 38.7244783,
      "lon": -9.1138427
    },
    {
      "type": "node",
      "id": 2460210161,
      "lat": 38.7244974,
      "lon": -9.1138696
    },
    {
      "type": "node",
      "id": 2460210165,
      "lat": 38.7245455,
      "lon": -9.1139372
    },
    {
      "type": "node",
      "id": 2460210168,
      "lat": 38.7246054,
      "lon": -9.1141442
    },
    {
      "type": "node",
      "id": 2460210176,
      "lat": 38.7246589,
      "lon": -9.1142196
    },
    {
      "type": "node",
      "id": 2460210180,
      "lat": 38.7246892,
      "lon": -9.1135966
    },
    {
      "type": "node",
      "id": 2460210183,
      "lat": 38.7247229,
      "lon": -9.1141869
    },
    {
      "type": "node",
      "id": 2460210184,
      "lat": 38.7247521,
      "lon": -9.1142872
    },
    {
      "type": "node",
      "id": 2460210185,
      "lat": 38.7247546,
      "lon": -9.1136931
    },
    {
      "type": "node",
      "id": 2460210187,
      "lat": 38.7247876,
      "lon": -9.1134886
    },
    {
      "type": "node",
      "id": 2460210190,
      "lat": 38.7248033,
      "lon": -9.1135164
    },
    {
      "type": "node",
      "id": 2460210193,
      "lat": 38.7248467,
      "lon": -9.1135857
    },
    {
      "type": "node",
      "id": 2460210195,
      "lat": 38.7249092,
      "lon": -9.1134521
    },
    {
      "type": "node",
      "id": 2460210197,
      "lat": 38.724932,
      "lon": -9.1139429
    },
    {
      "type": "node",
      "id": 2460210199,
      "lat": 38.7249408,
      "lon": -9.1135375
    },
    {
      "type": "node",
      "id": 2460210201,
      "lat": 38.7249508,
      "lon": -9.1140554
    },
    {
      "type": "node",
      "id": 2460210210,
      "lat": 38.7250584,
      "lon": -9.1142068
    },
    {
      "type": "node",
      "id": 2460210211,
      "lat": 38.7250498,
      "lon": -9.1140723
    },
    {
      "type": "node",
      "id": 2460210212,
      "lat": 38.7250763,
      "lon": -9.113909
    },
    {
      "type": "node",
      "id": 2460210213,
      "lat": 38.7250771,
      "lon": -9.114185
    },
    {
      "type": "node",
      "id": 2460210214,
      "lat": 38.7251059,
      "lon": -9.1141513
    },
    {
      "type": "node",
      "id": 2460210217,
      "lat": 38.725162,
      "lon": -9.1138208
    },
    {
      "type": "node",
      "id": 2460210220,
      "lat": 38.7252341,
      "lon": -9.1137564
    },
    {
      "type": "node",
      "id": 2480461478,
      "lat": 38.7251193,
      "lon": -9.1138661
    },
    {
      "type": "node",
      "id": 2549453806,
      "lat": 38.724397,
      "lon": -9.1142832
    },
    {
      "type": "node",
      "id": 2549453819,
      "lat": 38.7244498,
      "lon": -9.1139251
    },
    {
      "type": "node",
      "id": 2549453821,
      "lat": 38.7244666,
      "lon": -9.1142021
    },
    {
      "type": "node",
      "id": 2549453829,
      "lat": 38.724507,
      "lon": -9.114259
    },
    {
      "type": "node",
      "id": 2549453834,
      "lat": 38.7245709,
      "lon": -9.1137347
    },
    {
      "type": "node",
      "id": 2549453836,
      "lat": 38.7246126,
      "lon": -9.1140317
    },
    {
      "type": "node",
      "id": 2549453838,
      "lat": 38.724638,
      "lon": -9.1138292
    },
    {
      "type": "node",
      "id": 2549453840,
      "lat": 38.7246502,
      "lon": -9.1138149
    },
    {
      "type": "node",
      "id": 2549453843,
      "lat": 38.7246343,
      "lon": -9.1140623
    },
    {
      "type": "node",
      "id": 2549453846,
      "lat": 38.7246837,
      "lon": -9.1141908
    },
    {
      "type": "node",
      "id": 2549453889,
      "lat": 38.724766,
      "lon": -9.113507
    },
    {
      "type": "node",
      "id": 2549453945,
      "lat": 38.7248276,
      "lon": -9.1140647
    },
    {
      "type": "node",
      "id": 2549453963,
      "lat": 38.7248435,
      "lon": -9.1138183
    },
    {
      "type": "node",
      "id": 2549454021,
      "lat": 38.7252894,
      "lon": -9.1138582
    },
    {
      "type": "node",
      "id": 3562017388,
      "lat": 38.7243018,
      "lon": -9.1140977
    },
    {
      "type": "node",
      "id": 3562017389,
      "lat": 38.7243395,
      "lon": -9.1141508
    },
    {
      "type": "node",
      "id": 3562017390,
      "lat": 38.7243512,
      "lon": -9.1139537
    },
    {
      "type": "node",
      "id": 3562017391,
      "lat": 38.7243782,
      "lon": -9.1139222
    },
    {
      "type": "node",
      "id": 3562017392,
      "lat": 38.7243848,
      "lon": -9.114001
    },
    {
      "type": "node",
      "id": 3562018193,
      "lat": 38.7244118,
      "lon": -9.1139695
    },
    {
      "type": "way",
      "id": 182816043,
      "nodes": [
        1206842862,
        1206842910,
        1206842981,
        1206842916,
        1206843048,
        1206843187,
        1206842879,
        1206843172,
        1206842862
      ]
    },
    {
      "type": "way",
      "id": 156208228,
      "nodes": [
        1206843132,
        1565599268,
        1565599375,
        1565599301,
        1565599255,
        1206843230,
        1206843087,
        1206843162,
        1206843195,
        1206842902,
        1206843207,
        1206843069,
        1206842942,
        1206843003,
        1206842866,
        1206843176,
        1206843036,
        1206843096,
        1206842966,
        1206842827,
        1206843139,
        1206843202,
        1206843132
      ]
    },
    {
      "type": "way",
      "id": 359079633,
      "nodes": [
        262949277,
        262949276,
        1565599252,
        1565599270,
        262949275,
        1565599335,
        1565599340,
        262949274,
        262949291,
        262949290,
        1684834681,
        262949289,
        1565599361,
        1565599231,
        1565599276,
        1565599192,
        262949288,
        1565599221,
        1565599299,
        1565599328,
        1565599180,
        1206842888,
        3638719783,
        1206842952,
        1565599303,
        1565599308,
        1206842805,
        1206842986,
        1206843113,
        1206843042,
        1206842911,
        1206843215,
        262949287,
        3638719780,
        1206842786,
        3638721797,
        1206843091,
        1206842963,
        1206842959,
        1206843129,
        1206843078,
        262949286,
        262949285,
        3638721802,
        262949284,
        262949283,
        262949282,
        262949281,
        262949280,
        1802560222,
        1802560217,
        262949279,
        262949278,
        4614190312,
        1802560218,
        1802560221,
        3638721798,
        3638719788,
        3638721799,
        262949277
      ]
    },
    {
      "type": "way",
      "id": 241567683,
      "nodes": [
        2491772528,
        2491772523,
        2491772526,
        2491772527,
        2491772528
      ]
    },
    {
      "type": "way",
      "id": 241567684,
      "nodes": [
        2491772530,
        2491772529,
        2491772525,
        2491772524,
        2491772530
      ]
    },
    {
      "type": "way",
      "id": 426050687,
      "nodes": [
        4253711041,
        4253711047,
        4253711045,
        4253711046,
        4253711049,
        4253711054,
        4253711052,
        4253711048,
        4253711043,
        4253711039,
        4253711042,
        4253711040,
        4253711041
      ]
    },
    {
      "type": "way",
      "id": 138146722,
      "nodes": [
        1514445092,
        4253711038,
        4253711044,
        1514403443,
        1514403454,
        1796261161,
        1514403445,
        4253711051,
        1514403457,
        4253711055,
        4253711057,
        1514403449,
        1514445092
      ]
    },
    {
      "type": "way",
      "id": 28239307,
      "nodes": [
        310164144,
        310164145,
        310164146,
        310164147,
        310164148,
        310164149,
        5643295296,
        310164150,
        310164151,
        310164152,
        310164153,
        310164154,
        4061808325,
        310164157,
        5643295299,
        4061791999,
        310164144
      ]
    },
    {
      "type": "way",
      "id": 403833325,
      "nodes": [
        4061377128,
        4061377129,
        5643295298,
        4061377127,
        4061377126,
        5643295297,
        4061377128
      ]
    },
    {
      "type": "way",
      "id": 189596818,
      "nodes": [
        2001836102,
        2001836100,
        4380983206,
        4380983209,
        4380983208,
        4380983204,
        2001836088,
        2001836092,
        4380983213,
        4380983211,
        4380983212,
        4380983214,
        2001836094,
        2001836098,
        2001836096,
        2001836090,
        2001836102
      ]
    },
    {
      "type": "way",
      "id": 440370034,
      "nodes": [
        4380983197,
        5088757670,
        4380983196,
        4380981586,
        4380983189,
        4380981580,
        4779924882,
        5088757671,
        4779924878,
        4779924877,
        4779924881,
        4380981587,
        4779924879,
        4779924880,
        4380981583,
        4380981579,
        4380981575,
        5088757668,
        5088757666,
        5088757665,
        5088757664,
        5088757656,
        5088757663,
        5088757667,
        2483777478,
        2483777474,
        2483777490,
        4380983199,
        4380983205,
        4380983198,
        4380983197
      ]
    },
    {
      "type": "way",
      "id": 485215120,
      "nodes": [
        4779924823,
        5088757637,
        5088757636,
        4380983215,
        4779924822,
        4380983217,
        4380983221,
        4380983219,
        5088757635,
        5088757638,
        4380983218,
        4380983210,
        4380983203,
        4779924821,
        4779924720,
        4779924823
      ]
    },
    {
      "type": "way",
      "id": 97042755,
      "nodes": [
        1124179643,
        1124179594,
        1124179662,
        1124179872,
        1124179643
      ]
    },
    {
      "type": "way",
      "id": 97042756,
      "nodes": [
        1124179573,
        5090471919,
        1124179799,
        1124179600,
        5090471920,
        1124179566,
        5090472725,
        1124179573
      ]
    },
    {
      "type": "way",
      "id": 96315914,
      "nodes": [
        1116331932,
        1116332060,
        1116332192,
        1116332271,
        3661228130,
        1116331932
      ]
    },
    {
      "type": "way",
      "id": 97035320,
      "nodes": [
        1124109376,
        1124109533,
        1124109570,
        1124109661,
        1124109376
      ]
    },
    {
      "type": "way",
      "id": 238166510,
      "nodes": [
        2460210197,
        2549453945,
        2460210183,
        2549453843,
        2549453836,
        2460210165,
        2549453838,
        2549453840,
        2460210185,
        2549453963,
        2460210197
      ]
    },
    {
      "type": "way",
      "id": 350456254,
      "nodes": [
        3562017388,
        3562017389,
        2460210145,
        2549453806,
        2549453821,
        2549453829,
        2460210168,
        2460210176,
        2549453846,
        2460210184,
        2460210201,
        2460210210,
        2460210213,
        2460210214,
        2460210211,
        2549454021,
        2460210220,
        2460210217,
        2480461478,
        2460210212,
        2460210193,
        2460210199,
        2460210195,
        2460210190,
        2460210187,
        2549453889,
        2460210180,
        2549453834,
        2460210159,
        2460210161,
        2549453819,
        3562018193,
        3562017391,
        3562017390,
        3562017392,
        3562017388
      ]
    }
  ]
}